{
  "type": "FeatureCollection",
  "features": [
    {"type":"Feature","properties":{"id":"UNNT-Sector 6 (E)","minFL":150,"maxFL":189},"geometry":{"type":"MultiPolygon","coordinates":[[[[84.75,53.983333333333334],[85.38333333333334,54.233333333333334],[85.38333333333334,54.233333333333334],[85.48333333333333,54.35],[85.48333333333333,54.35],[85.75,54.45],[85.75,54.45],[87,54.513333333333335],[87,54.513333333333335],[87.5,54.53333333333333],[87.5,54.53333333333333],[87.91666666666667,54.55],[87.91666666666667,54.55],[88.68333333333334,54.516666666666666],[88.68333333333334,54.516666666666666],[89.05,52.833333333333336],[89.05,52.833333333333336],[88.6,52.083333333333336],[88.6,52.083333333333336],[87.11666666666666,52.25],[87.11666666666666,52.25],[86.91833333333334,52.434999999999995],[86.91833333333334,52.434999999999995],[86.72,52.61833333333333],[86.72,52.61833333333333],[86.46666666666667,52.85],[86.46666666666667,52.85],[85.61666666666666,53.083333333333336],[85.61666666666666,53.083333333333336],[85.4,53.43333333333333],[85.4,53.43333333333333],[84.75,53.983333333333334]]]]}},
    {"type":"Feature","properties":{"id":"UNNT-Sector 6 (D)","minFL":180,"maxFL":189},"geometry":{"type":"MultiPolygon","coordinates":[[[[89.66666666666667,49.933055555555555],[89.45,51],[88.28333333333333,51.53333333333333],[88.6,52.083333333333336],[87.11666666666666,52.25],[86.36777777777777,51.92444444444444],[86.05,51.78333333333333],[85.36305555555555,51.735],[84.9,51.7],[83.43805555555556,51.01138888888889],[83.41666666666667,50.96666666666667],[83.79972222222221,50.875],[83.96666666666667,50.77472222222222],[83.96666666666667,50.71666666666667],[84.21666666666667,50.5],[84.19166666666668,50.458333333333336],[84.25,50.349722222222226],[84.21666666666667,50.29972222222222],[84.34972222222221,50.21666666666667],[84.46666666666667,50.233333333333334],[84.81638888888888,50.13305555555556],[84.83305555555555,50.083333333333336],[84.93333333333334,50.083333333333336],[85.04972222222221,50],[84.98333333333333,50],[85,49.89138888888889],[85.09972222222221,49.88333333333333],[85.2,49.71666666666667],[85.2,49.61666666666667],[85.34972222222221,49.575],[85.4,49.56666666666667],[85.54972222222221,49.6],[85.68333333333334,49.54138888888889],[85.75833333333334,49.558055555555555],[85.93333333333334,49.54138888888889],[85.9,49.5],[85.98333333333333,49.483333333333334],[86.08305555555555,49.51638888888889],[86.16666666666667,49.45],[86.23333333333333,49.583333333333336],[86.4,49.64972222222222],[86.59972222222221,49.808055555555555],[86.79972222222221,49.8],[86.76638888888888,49.7],[86.63333333333334,49.64972222222222],[86.65,49.56666666666667],[86.78305555555555,49.54972222222222],[86.83305555555555,49.51638888888889],[86.79972222222221,49.39972222222222],[86.90805555555556,49.36666666666667],[86.89972222222222,49.35],[86.93333333333334,49.29972222222222],[87,49.29972222222222],[87.03305555555555,49.249722222222225],[87.26638888888888,49.21666666666667],[87.26694444444445,49.11805555555556],[87.41666666666667,49.083333333333336],[87.83333333333333,49.18333333333333],[88.13333333333334,49.25],[88.1,49.36666666666667],[88.18333333333334,49.46666666666667],[88.63333333333334,49.516666666666666],[88.86666666666666,49.45],[88.91666666666667,49.55],[88.98333333333333,49.46666666666667],[89.21666666666667,49.55],[89.23333333333333,49.65],[89.38333333333334,49.583333333333336],[89.68333333333334,49.7],[89.75,49.78333333333333],[89.63333333333334,49.81666666666667],[89.66666666666667,49.933055555555555]]]]}},
    {"type":"Feature","properties":{"id":"UNNT-Sector 6 (C)","minFL":110,"maxFL":189},"geometry":{"type":"MultiPolygon","coordinates":[[[[82.11666666666666,50.74666666666667],[82.11666666666666,51.46666666666667],[82.91666666666667,51.46666666666667],[83.58333333333333,52.06666666666667],[84.99444444444444,52.38333333333333],[85.38333333333334,52.46666666666667],[86.05916666666667,52.54472222222222],[86.72,52.61833333333333],[86.91833333333334,52.434999999999995],[87.11666666666666,52.25],[86.36777777777777,51.92444444444444],[86.05,51.78333333333333],[85.36305555555555,51.735],[84.9,51.7],[83.43805555555556,51.01138888888889],[83.11638888888888,51],[83.09166666666667,50.94138888888889],[82.98333333333333,50.908055555555556],[82.75,50.933055555555555],[82.71666666666667,50.933055555555555],[82.59972222222221,50.75861111111111],[82.56638888888888,50.75],[82.28333333333333,50.76638888888889],[82.2,50.725],[82.11666666666666,50.74666666666667]]]]}},
    {"type":"Feature","properties":{"id":"UNNT-Sector 6 (A)","minFL":60,"maxFL":189},"geometry":{"type":"MultiPolygon","coordinates":[[[[77.42,53.54972222222222],[77.42666666666668,53.55166666666666],[79.58333333333333,54],[81.73166666666667,54.026666666666664],[82.30749999999999,54.03388888888889],[82.22333333333333,53.55888888888889],[82.29555555555555,53.34444444444445],[82.86333333333333,53.17166666666667],[84.27833333333334,53.28],[84.50166666666667,53.50833333333333],[84.23333333333333,53.90833333333333],[83.98333333333333,54.06333333333333],[84.75,53.983333333333334],[85.4,53.43333333333333],[85.61666666666666,53.083333333333336],[86.46666666666667,52.85],[86.72,52.61833333333333],[86.05916666666667,52.54472222222222],[85.38333333333334,52.46666666666667],[84.99444444444444,52.38333333333333],[83.58333333333333,52.06666666666667],[82.91666666666667,51.46666666666667],[82.11666666666666,51.46666666666667],[82.11666666666666,50.74666666666667],[82.01638888888888,50.79138888888889],[81.86638888888888,50.79972222222222],[81.81638888888888,50.76638888888889],[81.78305555555555,50.81666666666667],[81.75,50.75805555555556],[81.54972222222221,50.75],[81.43333333333334,50.75805555555556],[81.46666666666667,50.833333333333336],[81.41638888888889,50.88305555555556],[81.43333333333334,50.92472222222222],[81.38333333333334,50.975],[81.16666666666667,50.933055555555555],[81.04972222222221,50.94138888888889],[81.16666666666667,51.175],[81.11666666666666,51.21666666666667],[81.06638888888888,51.16638888888889],[80.91666666666667,51.2],[80.92500000000001,51.25],[80.66666666666667,51.29972222222222],[80.63333333333334,51.2],[80.45,51.2],[80.43333333333334,51.13305555555556],[80.48333333333333,51.1],[80.48333333333333,50.96666666666667],[80.42500000000001,50.96666666666667],[80.36638888888888,50.933055555555555],[80.25,50.91638888888889],[80.18333333333334,50.88305555555556],[80.19166666666668,50.825],[80.06638888888888,50.825],[80.08305555555555,50.73305555555556],[79.85249999999999,51.028055555555554],[79,52.13305555555556],[77.91666666666667,53.283055555555556],[77.42,53.54972222222222]]]]}},
    {"type":"Feature","properties":{"id":"UNNT-Sector 6","minFL":190,"maxFL":599},"geometry":{"type":"MultiPolygon","coordinates":[[[[88.68333333333334,54.516666666666666],[89.05,52.833333333333336],[88.6,52.083333333333336],[88.28333333333333,51.53333333333333],[89.45,51],[89.66666666666667,49.933055555555555],[89.63333333333334,49.81666666666667],[89.75,49.78333333333333],[89.68333333333334,49.7],[89.38333333333334,49.583333333333336],[89.23333333333333,49.65],[89.21666666666667,49.55],[88.98333333333333,49.46666666666667],[88.91666666666667,49.55],[88.86666666666666,49.45],[88.63333333333334,49.516666666666666],[88.18333333333334,49.46666666666667],[88.1,49.36666666666667],[88.13333333333334,49.25],[87.83333333333333,49.18333333333333],[87.41666666666667,49.083333333333336],[87.26694444444445,49.11805555555556],[87.26638888888888,49.21666666666667],[87.03305555555555,49.249722222222225],[87,49.29972222222222],[86.93333333333334,49.29972222222222],[86.89972222222222,49.35],[86.90805555555556,49.36666666666667],[86.79972222222221,49.39972222222222],[86.83305555555555,49.51638888888889],[86.78305555555555,49.54972222222222],[86.65,49.56666666666667],[86.63333333333334,49.64972222222222],[86.76638888888888,49.7],[86.79972222222221,49.8],[86.59972222222221,49.808055555555555],[86.4,49.64972222222222],[86.23333333333333,49.583333333333336],[86.16666666666667,49.45],[86.08305555555555,49.51638888888889],[85.98333333333333,49.483333333333334],[85.9,49.5],[85.93333333333334,49.54138888888889],[85.75833333333334,49.558055555555555],[85.68333333333334,49.54138888888889],[85.54972222222221,49.6],[85.4,49.56666666666667],[85.34972222222221,49.575],[85.2,49.61666666666667],[85.2,49.71666666666667],[85.09972222222221,49.88333333333333],[85,49.89138888888889],[84.98333333333333,50],[85.04972222222221,50],[84.93333333333334,50.083333333333336],[84.83305555555555,50.083333333333336],[84.81638888888888,50.13305555555556],[84.46666666666667,50.233333333333334],[84.34972222222221,50.21666666666667],[84.21666666666667,50.29972222222222],[84.25,50.349722222222226],[84.19166666666668,50.458333333333336],[84.21666666666667,50.5],[83.96666666666667,50.71666666666667],[83.96666666666667,50.77472222222222],[83.79972222222221,50.875],[83.41666666666667,50.96666666666667],[83.43805555555556,51.01138888888889],[83.11638888888888,51],[83.09166666666667,50.94138888888889],[82.98333333333333,50.908055555555556],[82.75,50.933055555555555],[82.71666666666667,50.933055555555555],[82.59972222222221,50.75861111111111],[82.56638888888888,50.75],[82.28333333333333,50.76638888888889],[82.2,50.725],[82.11666666666666,50.74666666666667],[82.01638888888888,50.79138888888889],[81.86638888888888,50.79972222222222],[81.81638888888888,50.76638888888889],[81.78305555555555,50.81666666666667],[81.75,50.75805555555556],[81.54972222222221,50.75],[81.43333333333334,50.75805555555556],[81.46666666666667,50.833333333333336],[81.41638888888889,50.88305555555556],[81.43333333333334,50.92472222222222],[81.38333333333334,50.975],[81.16666666666667,50.933055555555555],[81.04972222222221,50.94138888888889],[81.16666666666667,51.175],[81.11666666666666,51.21666666666667],[81.06638888888888,51.16638888888889],[80.91666666666667,51.2],[80.92500000000001,51.25],[80.66666666666667,51.29972222222222],[80.63333333333334,51.2],[80.45,51.2],[80.43333333333334,51.13305555555556],[80.48333333333333,51.1],[80.48333333333333,50.96666666666667],[80.42500000000001,50.96666666666667],[80.36638888888888,50.933055555555555],[80.25,50.91638888888889],[80.18333333333334,50.88305555555556],[80.19166666666668,50.825],[80.06638888888888,50.825],[80.08305555555555,50.73305555555556],[79.85249999999999,51.028055555555554],[79,52.13305555555556],[77.91666666666667,53.283055555555556],[77.42,53.54972222222222],[77.42666666666668,53.55166666666666],[79.58333333333333,54],[81.73166666666667,54.026666666666664],[82.30749999999999,54.03388888888889],[82.78333333333333,54.026666666666664],[83.40333333333334,54.12166666666667],[83.98333333333333,54.06333333333333],[84.75,53.983333333333334],[85.38333333333334,54.233333333333334],[85.48333333333333,54.35],[85.75,54.45],[87,54.513333333333335],[87.5,54.53333333333333],[87.91666666666667,54.55],[88.68333333333334,54.516666666666666]]]]}},
    {"type":"Feature","properties":{"id":"UNNT-Sector 9 (C)","minFL":150,"maxFL":189},"geometry":{"type":"MultiPolygon","coordinates":[[[[84.97972222222222,55.382777777777775],[85.2,55.5],[85.2,55.71666666666667],[85.06666666666666,55.8],[86,56.083333333333336],[86.15,55.266666666666666],[84.97972222222222,55.382777777777775]]]]}},
    {"type":"Feature","properties":{"id":"UNNT-Sector 9 (B)","minFL":190,"maxFL":599},"geometry":{"type":"MultiPolygon","coordinates":[[[[86.15,55.266666666666666],[84.97972222222222,55.382777777777775],[84.71666666666667,55.4],[84.13333333333334,55.46666666666667],[82.4,55.28333333333333],[82.26166666666667,56.019999999999996],[82.18333333333334,56.05],[81.71666666666667,56.3],[81.11222222222221,57.13111111111111],[82.06666666666666,57.016666666666666],[83.88166666666666,57.10166666666667],[84.73666666666666,57.13166666666667],[84.97333333333333,57.151666666666664],[86,57],[86,56.083333333333336],[86.15,55.266666666666666]]]]}},
    {"type":"Feature","properties":{"id":"UNNT-Sector 9","minFL":60,"maxFL":189},"geometry":{"type":"MultiPolygon","coordinates":[[[[82.26166666666667,56.019999999999996],[82.44,56.05833333333333],[82.52333333333333,56.06666666666667],[82.63333333333334,56.083333333333336],[83.2,56.18333333333333],[83.88166666666666,57.10166666666667],[82.06666666666666,57.016666666666666],[81.11222222222221,57.13111111111111],[81.71666666666667,56.3],[82.18333333333334,56.05],[82.26166666666667,56.019999999999996]]]]}},
    {"type":"Feature","properties":{"id":"UNNT-Sector 8 (A)","minFL":60,"maxFL":264},"geometry":{"type":"MultiPolygon","coordinates":[[[[72.79972222222221,58.16638888888889],[73.61333333333333,57.845],[73.75,56.25],[73.61638888888888,56.15555555555555],[71.2238888888889,55.61527777777778],[71.02166666666666,55.08527777777778],[71,55.058055555555555],[70.79972222222221,55.29972222222222],[70.61638888888888,55.26638888888889],[70.45,55.283055555555556],[70.4,55.2],[70.16666666666667,55.125],[70.03305555555555,55.183055555555555],[69.93333333333334,55.2],[69.84972222222221,55.29972222222222],[69.61666666666666,55.358333333333334],[69.48333333333333,55.35],[69.41666666666667,55.375],[69.19166666666668,55.333333333333336],[69.15833333333335,55.39138888888889],[69.21666666666667,55.66638888888889],[69.35666666666665,55.82055555555556],[69.59888888888888,56.083333333333336],[69.65194444444445,56.14333333333333],[70.01361111111112,56.52027777777778],[70.22194444444445,56.733333333333334],[70.81361111111111,57.35166666666667],[71.16555555555556,57.70027777777778],[72.54694444444445,58.096111111111114],[72.79972222222221,58.16638888888889]]]]}},
    {"type":"Feature","properties":{"id":"UNNT-Sector 8","minFL":265,"maxFL":599},"geometry":{"type":"MultiPolygon","coordinates":[[[[71,55.058055555555555],[70.98333333333333,54.88305555555556],[71.09972222222221,54.725],[71.28305555555555,54.67472222222222],[71.3,54.61666666666667],[71.18333333333334,54.59166666666667],[71.21666666666667,54.36666666666667],[71.18333333333334,54.31666666666667],[71,54.35],[71.01638888888888,54.29138888888889],[71.08305555555555,54.283055555555556],[71.06638888888888,54.19972222222222],[71.19972222222222,54.1],[71.33305555555555,54.183055555555555],[71.5,54.158055555555556],[71.5,54.1],[71.73333333333333,54.11638888888889],[71.75,54.25],[72.01666666666667,54.233333333333334],[72.16666666666667,54.13305555555556],[72.18333333333334,54.19972222222222],[72.08333333333333,54.233333333333334],[72.13333333333334,54.29972222222222],[72.01666666666667,54.38305555555556],[72.18333333333334,54.375],[72.29972222222221,54.24166666666667],[72.29166666666667,54.183055555555555],[72.5,54.125],[72.33305555555555,54.1],[72.4,54.03333333333333],[72.36638888888888,53.94138888888889],[72.48333333333333,53.908055555555556],[72.54972222222221,53.983333333333334],[72.69972222222222,53.95],[72.65,54.04972222222222],[72.51638888888888,54.04972222222222],[72.59972222222221,54.13305555555556],[72.96666666666667,54.1],[73.06638888888888,53.99166666666667],[73.28305555555555,53.95],[73.4,53.95],[73.4,53.99166666666667],[73.53305555555555,53.94138888888889],[73.5,54],[73.59972222222221,54.03333333333333],[73.65,54.083333333333336],[73.73333333333333,54.058055555555555],[73.68333333333334,53.86666666666667],[73.45,53.88305555555556],[73.45,53.81638888888889],[73.34972222222221,53.79972222222222],[73.31638888888888,53.683055555555555],[73.25,53.683055555555555],[73.25,53.56666666666667],[73.4,53.533055555555556],[73.36666666666666,53.46666666666667],[73.45,53.45],[73.5,53.5],[73.59972222222221,53.54972222222222],[73.64166666666668,53.558055555555555],[73.66666666666667,53.625],[73.83305555555555,53.583333333333336],[73.9,53.65],[74.08333333333333,53.625],[74.04972222222221,53.558055555555555],[74.15,53.54972222222222],[74.16666666666667,53.6],[74.23333333333333,53.59166666666667],[74.28333333333333,53.48305555555556],[74.4,53.45],[74.48333333333333,53.575],[74.43333333333334,53.583333333333336],[74.46666666666667,53.683055555555555],[73.15833333333335,55.39],[73.23333333333333,55.88333333333333],[73.75,56.25],[73.61333333333333,57.845],[72.79972222222221,58.16638888888889],[72.54694444444445,58.096111111111114],[71.16555555555556,57.70027777777778],[70.81361111111111,57.35166666666667],[70.22194444444445,56.733333333333334],[70.01361111111112,56.52027777777778],[69.65194444444445,56.14333333333333],[69.59888888888888,56.083333333333336],[69.35666666666665,55.82055555555556],[69.21666666666667,55.66638888888889],[69.15833333333335,55.39138888888889],[69.19166666666668,55.333333333333336],[69.41666666666667,55.375],[69.48333333333333,55.35],[69.61666666666666,55.358333333333334],[69.84972222222221,55.29972222222222],[69.93333333333334,55.2],[70.03305555555555,55.183055555555555],[70.16666666666667,55.125],[70.4,55.2],[70.45,55.283055555555556],[70.61638888888888,55.26638888888889],[70.79972222222221,55.29972222222222],[71,55.058055555555555]]]]}},
    {"type":"Feature","properties":{"id":"UNNT-Sector 7 (A)","minFL":60,"maxFL":264},"geometry":{"type":"MultiPolygon","coordinates":[[[[73.61638888888888,56.15555555555555],[73.75,56.25],[73.75,56.25],[73.61333333333333,57.845],[73.61333333333333,57.845],[74.93333333333334,57.3],[74.93333333333334,57.3],[77,57.05],[77,57.05],[78.3,55.36666666666667],[78.3,55.36666666666667],[77.63333333333334,54.93333333333333],[77.63333333333334,54.93333333333333],[76.93,54.455000000000005],[76.93,54.455000000000005],[76.88333333333334,54.45],[76.88333333333334,54.45],[76.71666666666667,54.433055555555555],[76.71666666666667,54.433055555555555],[76.66666666666667,54.34166666666667],[76.66666666666667,54.34166666666667],[76.55277777777778,54.33833333333334],[76.55277777777778,54.33833333333334],[76.5,54.31666666666667],[76.5,54.31666666666667],[76.33333333333333,54.333333333333336],[76.33333333333333,54.333333333333336],[76.23305555555555,54.358333333333334],[76.23305555555555,54.358333333333334],[76.19166666666668,54.29972222222222],[76.19166666666668,54.29972222222222],[76.24166666666667,54.27472222222222],[76.24166666666667,54.27472222222222],[75.59972222222221,54.1],[75.59972222222221,54.1],[75.525,54.125],[75.525,54.125],[75.38333333333334,54.083333333333336],[75.38333333333334,54.083333333333336],[75.81638888888888,55.07361111111111],[75.81638888888888,55.07361111111111],[73.92944444444444,56.225833333333334],[73.92944444444444,56.225833333333334],[73.61638888888888,56.15555555555555]]]]}},
    {"type":"Feature","properties":{"id":"UNNT-Sector 7","minFL":265,"maxFL":599},"geometry":{"type":"MultiPolygon","coordinates":[[[[73.75,56.25],[73.61638888888888,56.15555555555555],[73.23333333333333,55.88333333333333],[73.15833333333335,55.39],[74.46666666666667,53.683055555555555],[74.63333333333334,53.658055555555556],[74.66666666666667,53.75805555555556],[74.76638888888888,53.75],[74.8,53.81638888888889],[74.98333333333333,53.81638888888889],[75.01638888888888,53.783055555555556],[75.5,54],[75.38333333333334,54.083333333333336],[75.525,54.125],[75.59972222222221,54.1],[76.24166666666667,54.27472222222222],[76.19166666666668,54.29972222222222],[76.23305555555555,54.358333333333334],[76.33333333333333,54.333333333333336],[76.5,54.31666666666667],[76.55277777777778,54.33833333333334],[76.66666666666667,54.34166666666667],[76.71666666666667,54.433055555555555],[76.88333333333334,54.45],[76.93,54.455000000000005],[77.63333333333334,54.93333333333333],[78.3,55.36666666666667],[77,57.05],[74.93333333333334,57.3],[73.61333333333333,57.845],[73.75,56.25]]]]}},
    {"type":"Feature","properties":{"id":"UNNT-Sector 5","minFL":60,"maxFL":599},"geometry":{"type":"MultiPolygon","coordinates":[[[[81.11222222222221,57.13111111111111],[80.83333333333333,57.166666666666664],[80,57.25],[79.71333333333334,57.72833333333333],[79.68333333333334,58.68333333333333],[80.86666666666666,59.03333333333333],[80.16666666666667,60.66638888888889],[83,60.91638888888889],[87.93305555555555,58.75],[88.16666666666667,57.35],[88.66666666666667,56.666666666666664],[87.05,57],[86,57],[84.97333333333333,57.151666666666664],[84.73666666666666,57.13166666666667],[83.88166666666666,57.10166666666667],[82.06666666666666,57.016666666666666],[81.11222222222221,57.13111111111111]]]]}},
    {"type":"Feature","properties":{"id":"UNNT-Sector 4 (A)","minFL":60,"maxFL":69},"geometry":{"type":"MultiPolygon","coordinates":[[[[80.16666666666667,60.66638888888889],[79,60.78611111111111],[78.53861111111111,60.83833333333334],[78.56805555555555,60.78111111111111],[78.57944444444443,60.71055555555556],[78.56805555555555,60.640277777777776],[78.53444444444445,60.57194444444445],[78.47916666666667,60.507222222222225],[78.4038888888889,60.4475],[78.31027777777777,60.39416666666666],[78.20055555555555,60.348888888888894],[78.0775,60.3125],[77.94416666666667,60.28583333333333],[77.80388888888889,60.269444444444446],[77.66027777777778,60.26416666666667],[77.51638888888888,60.269444444444446],[77.3761111111111,60.28583333333333],[77.24277777777777,60.3125],[77.11972222222222,60.348888888888894],[77.01,60.39416666666666],[76.91638888888889,60.4475],[76.8411111111111,60.507222222222225],[76.80166666666666,60.55583333333333],[76.73527777777778,60.51305555555555],[76.48333333333333,60.35],[75.95305555555557,60.08277777777778],[75.28194444444445,59.75055555555556],[74.49861111111112,59.33361111111111],[74.0213888888889,59.08416666666667],[73.86666666666666,59],[73.68861111111111,58.86527777777778],[73.61083333333333,58.8],[73.17694444444444,58.466944444444444],[72.90361111111112,58.25694444444444],[72.79972222222221,58.16638888888889],[73.61333333333333,57.845],[74.93333333333334,57.3],[77,57.05],[79.71666666666667,57.28333333333333],[80,57.25],[79.71333333333334,57.72833333333333],[79.68333333333334,58.68333333333333],[80.86666666666666,59.03333333333333],[80.16666666666667,60.66638888888889]]]]}},
    {"type":"Feature","properties":{"id":"UNNT-Sector 4","minFL":70,"maxFL":599},"geometry":{"type":"MultiPolygon","coordinates":[[[[80.16666666666667,60.66638888888889],[80.86666666666666,59.03333333333333],[79.68333333333334,58.68333333333333],[79.71333333333334,57.72833333333333],[80,57.25],[79.71666666666667,57.28333333333333],[77,57.05],[74.93333333333334,57.3],[73.61333333333333,57.845],[72.79972222222221,58.16638888888889],[72.90361111111112,58.25694444444444],[73.17694444444444,58.466944444444444],[73.61083333333333,58.8],[73.68861111111111,58.86527777777778],[73.86666666666666,59],[74.0213888888889,59.08416666666667],[74.49861111111112,59.33361111111111],[75.28194444444445,59.75055555555556],[75.95305555555557,60.08277777777778],[76.48333333333333,60.35],[76.73527777777778,60.51305555555555],[76.80166666666666,60.55583333333333],[76.87083333333332,60.60166666666667],[77.05,60.71666666666667],[77.03388888888888,60.83361111111111],[77.03333333333333,60.85],[77.38333333333334,60.95],[77.61055555555555,60.928888888888885],[77.96194444444444,60.89277777777778],[78.53861111111111,60.83833333333334],[79,60.78611111111111],[80.16666666666667,60.66638888888889]]]]}},
    {"type":"Feature","properties":{"id":"UNNT-Sector 3 (A)","minFL":60,"maxFL":149},"geometry":{"type":"MultiPolygon","coordinates":[[[[86,57],[86,56.083333333333336],[89.08333333333333,56.06666666666667],[88.66666666666667,56.666666666666664],[87.05,57],[86,57]]]]}},
    {"type":"Feature","properties":{"id":"UNNT-Sector 3","minFL":150,"maxFL":599},"geometry":{"type":"MultiPolygon","coordinates":[[[[85.75,54.45],[87,54.513333333333335],[87.5,54.53333333333333],[87.91666666666667,54.55],[88.68333333333334,54.516666666666666],[88.66666666666667,54.583333333333336],[88.78305555555555,55],[88.97777777777777,55.69888888888889],[89.08333333333333,56.06666666666667],[88.66666666666667,56.666666666666664],[87.05,57],[86,57],[86,56.083333333333336],[86.15,55.266666666666666],[85.75,54.45]]]]}},
    {"type":"Feature","properties":{"id":"UNNT-Sector 2 (C)","minFL":150,"maxFL":189},"geometry":{"type":"MultiPolygon","coordinates":[[[[84.7,55.233333333333334],[84.66666666666667,54.833333333333336],[84.7,54.56666666666667],[85.48333333333333,54.35],[85.75,54.45],[86.15,55.266666666666666],[84.97972222222222,55.382777777777775],[84.7,55.233333333333334]]]]}},
    {"type":"Feature","properties":{"id":"UNNT-Sector 2 (A)","minFL":60,"maxFL":189},"geometry":{"type":"MultiPolygon","coordinates":[[[[85.48333333333333,54.35],[84.7,54.56666666666667],[84.66666666666667,54.833333333333336],[84.3,54.71666666666667],[84.26666666666667,54.67833333333333],[84.15,54.53333333333333],[84.13333333333334,54.5],[84.045,54.24166666666667],[83.98333333333333,54.06333333333333],[84.75,53.983333333333334],[85.38333333333334,54.233333333333334],[85.48333333333333,54.35]]]]}},
    {"type":"Feature","properties":{"id":"UNNT-Sector 2","minFL":190,"maxFL":599},"geometry":{"type":"MultiPolygon","coordinates":[[[[86.15,55.266666666666666],[84.97972222222222,55.382777777777775],[84.71666666666667,55.4],[84.13333333333334,55.46666666666667],[82.4,55.28333333333333],[82.20666666666666,54.516666666666666],[81.73166666666667,54.026666666666664],[82.30749999999999,54.03388888888889],[82.78333333333333,54.026666666666664],[83.40333333333334,54.12166666666667],[83.98333333333333,54.06333333333333],[84.75,53.983333333333334],[85.38333333333334,54.233333333333334],[85.48333333333333,54.35],[85.75,54.45],[86.15,55.266666666666666]]]]}},
    {"type":"Feature","properties":{"id":"UNNT-Sector 1 (A)","minFL":60,"maxFL":189},"geometry":{"type":"MultiPolygon","coordinates":[[[[76.93,54.455000000000005],[77.63333333333334,54.93333333333333],[78.3,55.36666666666667],[77,57.05],[79.71666666666667,57.28333333333333],[80,57.25],[80.83333333333333,57.166666666666664],[81.11222222222221,57.13111111111111],[81.71666666666667,56.3],[82.18333333333334,56.05],[82.26166666666667,56.019999999999996],[81.86666666666666,55.916666666666664],[81.585,55.79333333333333],[81.25,55.61666666666667],[81.135,55.468333333333334],[81.01833333333333,55.32333333333334],[80.99166666666667,55.215],[80.93333333333334,54.93333333333333],[80.96666666666667,54.825],[81.02833333333334,54.60666666666667],[81.01666666666667,54.43333333333333],[81.73166666666667,54.026666666666664],[79.58333333333333,54],[77.42666666666668,53.55166666666666],[77.42,53.54972222222222],[76.54083333333332,54],[76.4,54.183055555555555],[76.68333333333334,54.13305555555556],[76.85,54.233333333333334],[76.86638888888888,54.36666666666667],[76.78305555555555,54.375],[76.93333333333334,54.433055555555555],[76.93,54.455000000000005]]]]}},
    {"type":"Feature","properties":{"id":"UNNT-Sector 1","minFL":190,"maxFL":599},"geometry":{"type":"MultiPolygon","coordinates":[[[[81.11222222222221,57.13111111111111],[80.83333333333333,57.166666666666664],[80,57.25],[79.71666666666667,57.28333333333333],[77,57.05],[78.3,55.36666666666667],[77.63333333333334,54.93333333333333],[76.93,54.455000000000005],[76.93333333333334,54.433055555555555],[76.78305555555555,54.375],[76.86638888888888,54.36666666666667],[76.85,54.233333333333334],[76.68333333333334,54.13305555555556],[76.4,54.183055555555555],[76.54083333333332,54],[77.42,53.54972222222222],[77.42666666666668,53.55166666666666],[79.58333333333333,54],[81.73166666666667,54.026666666666664],[82.20666666666666,54.516666666666666],[82.31527777777778,54.934999999999995],[82.4,55.28333333333333],[82.26166666666667,56.019999999999996],[82.18333333333334,56.05],[81.71666666666667,56.3],[81.11222222222221,57.13111111111111]]]]}},
    {"type":"Feature","properties":{"id":"UNWW_TMA (B)","minFL":100,"maxFL":149},"geometry":{"type":"MultiPolygon","coordinates":[[[[86.91833333333334,52.434999999999995],[87.11666666666666,52.25],[88.6,52.083333333333336],[89.05,52.833333333333336],[88.68333333333334,54.516666666666666],[87.91666666666667,54.55],[87.5,54.53333333333333],[87.71666666666667,54],[88.11666666666666,53.7],[87.56666666666666,53.53333333333333],[87.3,53.2],[87.28333333333333,52.81666666666667],[86.91833333333334,52.434999999999995]]]]}},
    {"type":"Feature","properties":{"id":"UNWW_TMA (A)","minFL":60,"maxFL":149},"geometry":{"type":"MultiPolygon","coordinates":[[[[85.4,53.43333333333333],[85.61666666666666,53.083333333333336],[86.46666666666667,52.85],[86.91833333333334,52.434999999999995],[87.28333333333333,52.81666666666667],[87.3,53.2],[87.56666666666666,53.53333333333333],[88.11666666666666,53.7],[87.71666666666667,54],[87.5,54.53333333333333],[87,54.513333333333335],[85.75,54.45],[85.48333333333333,54.35],[85.38333333333334,54.233333333333334],[84.75,53.983333333333334],[85.4,53.43333333333333]]]]}},
    {"type":"Feature","properties":{"id":"UNWW_CTR","minFL":20,"maxFL":59},"geometry":{"type":"MultiPolygon","coordinates":[[[[86.99722222222222,54.255833333333335],[86.87833333333333,54.26138888888889],[86.75916666666667,54.255833333333335],[86.64277777777778,54.23916666666667],[86.5325,54.21194444444445],[86.43055555555556,54.17472222222222],[86.33972222222222,54.12861111111111],[86.26194444444444,54.074444444444445],[86.19972222222222,54.013888888888886],[86.1538888888889,53.948611111111106],[86.1261111111111,53.87972222222222],[86.11666666666666,53.809444444444445],[86.1261111111111,53.73916666666667],[86.1538888888889,53.67055555555555],[86.19972222222222,53.60583333333334],[86.26194444444444,53.545833333333334],[86.33972222222222,53.49277777777778],[86.43055555555556,53.447222222222216],[86.5325,53.410555555555554],[86.64277777777778,53.38388888888889],[86.75916666666667,53.3675],[86.87833333333333,53.36222222222222],[86.99722222222222,53.3675],[87.11361111111111,53.38388888888889],[87.2238888888889,53.410555555555554],[87.32583333333334,53.447222222222216],[87.41666666666667,53.49277777777778],[87.49444444444444,53.545833333333334],[87.55666666666666,53.60583333333334],[87.60249999999999,53.67055555555555],[87.63027777777778,53.73916666666667],[87.63972222222223,53.809444444444445],[87.63027777777778,53.87972222222222],[87.60249999999999,53.948611111111106],[87.55666666666666,54.013888888888886],[87.49444444444444,54.074444444444445],[87.41666666666667,54.12861111111111],[87.32583333333334,54.17472222222222],[87.2238888888889,54.21194444444445],[87.11361111111111,54.23916666666667],[86.99722222222222,54.255833333333335]]]]}},
    {"type":"Feature","properties":{"id":"UNTT_TMA","minFL":60,"maxFL":189},"geometry":{"type":"MultiPolygon","coordinates":[[[[83.2,56.18333333333333],[83.88166666666666,57.10166666666667],[84.73666666666666,57.13166666666667],[84.97333333333333,57.151666666666664],[86,57],[86,56.083333333333336],[85.06666666666666,55.8],[84.66666666666667,56.05],[84.25,56],[83.8,56.016666666666666],[83.61666666666666,56.1],[83.2,56.18333333333333]]]]}},
    {"type":"Feature","properties":{"id":"UNTT_CTR","minFL":20,"maxFL":59},"geometry":{"type":"MultiPolygon","coordinates":[[[[85.0936111111111,56.79138888888889],[85.21055555555556,56.79666666666667],[85.32722222222222,56.79138888888889],[85.4413888888889,56.77611111111111],[85.54972222222221,56.75111111111111],[85.64972222222222,56.716944444444444],[85.7388888888889,56.674166666666665],[85.815,56.624722222222225],[85.8761111111111,56.56888888888889],[85.92111111111112,56.50861111111111],[85.94833333333334,56.44555555555555],[85.95777777777778,56.38055555555555],[85.94833333333334,56.316111111111105],[85.92111111111112,56.253055555555555],[85.8761111111111,56.19333333333333],[85.815,56.138333333333335],[85.7388888888889,56.08916666666667],[85.64972222222222,56.0475],[85.54972222222221,56.013888888888886],[85.4413888888889,55.98916666666667],[85.32722222222222,55.97416666666667],[85.21055555555556,55.969166666666666],[85.0936111111111,55.97416666666667],[84.97944444444444,55.98916666666667],[84.8711111111111,56.013888888888886],[84.77111111111111,56.0475],[84.68194444444445,56.08916666666667],[84.66861111111112,56.10861111111111],[84.51388888888889,56.2],[84.83194444444445,56.29416666666666],[84.91666666666667,56.4],[85.01694444444445,56.473055555555554],[84.59083333333332,56.60416666666667],[84.60583333333332,56.624722222222225],[84.68194444444445,56.674166666666665],[84.77111111111111,56.716944444444444],[84.8711111111111,56.75111111111111],[84.97944444444444,56.77611111111111],[85.0936111111111,56.79138888888889]]]]}},
    {"type":"Feature","properties":{"id":"UNSS_R_APP","minFL":20,"maxFL":69},"geometry":{"type":"MultiPolygon","coordinates":[[[[77.03388888888888,60.83361111111111],[77.05,60.71666666666667],[76.87083333333332,60.60166666666667],[76.80166666666666,60.55583333333333],[76.8411111111111,60.507222222222225],[76.91638888888889,60.4475],[77.01,60.39416666666666],[77.11972222222222,60.348888888888894],[77.24277777777777,60.3125],[77.3761111111111,60.28583333333333],[77.51638888888888,60.269444444444446],[77.66027777777778,60.26416666666667],[77.80388888888889,60.269444444444446],[77.94416666666667,60.28583333333333],[78.0775,60.3125],[78.20055555555555,60.348888888888894],[78.31027777777777,60.39416666666666],[78.4038888888889,60.4475],[78.47916666666667,60.507222222222225],[78.53444444444445,60.57194444444445],[78.56805555555555,60.640277777777776],[78.57944444444443,60.71055555555556],[78.56805555555555,60.78111111111111],[78.53861111111111,60.83833333333334],[77.96194444444444,60.89277777777778],[77.61055555555555,60.928888888888885],[77.38333333333334,60.95],[77.03333333333333,60.85],[77.03333333333333,60.85],[77.03388888888888,60.83361111111111]]]]}},
    {"type":"Feature","properties":{"id":"UNOO_R_APP","minFL":20,"maxFL":69},"geometry":{"type":"MultiPolygon","coordinates":[[[[73.15833333333335,55.39],[73.52,55.35666666666667],[73.94166666666668,55.275],[74.0975,54.99861111111111],[73.86666666666666,54.65],[73.26666666666667,54.525],[72.70833333333334,54.65833333333333],[72.535,54.94166666666666],[72.7713888888889,55.26611111111111],[73.15833333333335,55.39]]]]}},
    {"type":"Feature","properties":{"id":"UNOO_APP","minFL":60,"maxFL":264},"geometry":{"type":"MultiPolygon","coordinates":[[[[71,55.058055555555555],[70.98333333333333,54.88305555555556],[71.09972222222221,54.725],[71.28305555555555,54.67472222222222],[71.3,54.61666666666667],[71.18333333333334,54.59166666666667],[71.21666666666667,54.36666666666667],[71.18333333333334,54.31666666666667],[71,54.35],[71.01638888888888,54.29138888888889],[71.08305555555555,54.283055555555556],[71.06638888888888,54.19972222222222],[71.19972222222222,54.1],[71.33305555555555,54.183055555555555],[71.5,54.158055555555556],[71.5,54.1],[71.73333333333333,54.11638888888889],[71.75,54.25],[72.01666666666667,54.233333333333334],[72.16666666666667,54.13305555555556],[72.18333333333334,54.19972222222222],[72.08333333333333,54.233333333333334],[72.13333333333334,54.29972222222222],[72.01666666666667,54.38305555555556],[72.18333333333334,54.375],[72.29972222222221,54.24166666666667],[72.29166666666667,54.183055555555555],[72.5,54.125],[72.33305555555555,54.1],[72.4,54.03333333333333],[72.36638888888888,53.94138888888889],[72.48333333333333,53.908055555555556],[72.54972222222221,53.983333333333334],[72.69972222222222,53.95],[72.65,54.04972222222222],[72.51638888888888,54.04972222222222],[72.59972222222221,54.13305555555556],[72.96666666666667,54.1],[73.06638888888888,53.99166666666667],[73.28305555555555,53.95],[73.4,53.95],[73.4,53.99166666666667],[73.53305555555555,53.94138888888889],[73.5,54],[73.59972222222221,54.03333333333333],[73.65,54.083333333333336],[73.73333333333333,54.058055555555555],[73.68333333333334,53.86666666666667],[73.45,53.88305555555556],[73.45,53.81638888888889],[73.34972222222221,53.79972222222222],[73.31638888888888,53.683055555555555],[73.25,53.683055555555555],[73.25,53.56666666666667],[73.4,53.533055555555556],[73.36666666666666,53.46666666666667],[73.45,53.45],[73.5,53.5],[73.59972222222221,53.54972222222222],[73.64166666666668,53.558055555555555],[73.66666666666667,53.625],[73.83305555555555,53.583333333333336],[73.9,53.65],[74.08333333333333,53.625],[74.04972222222221,53.558055555555555],[74.15,53.54972222222222],[74.16666666666667,53.6],[74.23333333333333,53.59166666666667],[74.28333333333333,53.48305555555556],[74.4,53.45],[74.48333333333333,53.575],[74.43333333333334,53.583333333333336],[74.46666666666667,53.683055555555555],[74.63333333333334,53.658055555555556],[74.66666666666667,53.75805555555556],[74.76638888888888,53.75],[74.8,53.81638888888889],[74.98333333333333,53.81638888888889],[75.01638888888888,53.783055555555556],[75.5,54],[75.38333333333334,54.083333333333336],[75.81638888888888,55.07361111111111],[73.92944444444444,56.225833333333334],[73.61638888888888,56.15555555555555],[71.2238888888889,55.61527777777778],[71.02166666666666,55.08527777777778],[71,55.058055555555555]]]]}},
    {"type":"Feature","properties":{"id":"UNOK_R_APP","minFL":20,"maxFL":39},"geometry":{"type":"MultiPolygon","coordinates":[[[[75.21666666666667,55.266666666666666],[74.35,55.36666666666667],[74.2,55.13333333333333],[74.0975,54.99861111111111],[74.38333333333334,54.483333333333334],[75.06666666666666,54.43333333333333],[75.45,54.63333333333333],[75.21666666666667,55.13333333333333],[75.21666666666667,55.266666666666666]]]]}},
    {"type":"Feature","properties":{"id":"UNNT_TMA","minFL":60,"maxFL":189},"geometry":{"type":"MultiPolygon","coordinates":[[[[85.06666666666666,55.8],[85.2,55.71666666666667],[85.2,55.5],[84.7,55.233333333333334],[84.66666666666667,54.833333333333336],[84.3,54.71666666666667],[84.26666666666667,54.67833333333333],[84.15,54.53333333333333],[84.13333333333334,54.5],[84.045,54.24166666666667],[83.98333333333333,54.06333333333333],[83.40333333333334,54.12166666666667],[82.78333333333333,54.026666666666664],[82.30749999999999,54.03388888888889],[81.73166666666667,54.026666666666664],[81.01666666666667,54.43333333333333],[81.02833333333334,54.60666666666667],[80.96666666666667,54.825],[80.93333333333334,54.93333333333333],[80.99166666666667,55.215],[81.01833333333333,55.32333333333334],[81.135,55.468333333333334],[81.25,55.61666666666667],[81.585,55.79333333333333],[81.86666666666666,55.916666666666664],[82.26166666666667,56.019999999999996],[82.44,56.05833333333333],[82.52333333333333,56.06666666666667],[82.63333333333334,56.083333333333336],[83.2,56.18333333333333],[83.61666666666666,56.1],[83.8,56.016666666666666],[84.25,56],[84.66666666666667,56.05],[85.06666666666666,55.8]]]]}},
    {"type":"Feature","properties":{"id":"UNNT_R_APP (LWR B)","minFL":40,"maxFL":60},"geometry":{"type":"MultiPolygon","coordinates":[[[[82.96000000000001,55.43111111111111],[82.95611111111111,55.43333333333333],[82.84222222222222,55.46055555555556],[82.7225,55.477222222222224],[82.6,55.48277777777778],[82.47722222222222,55.477222222222224],[82.35749999999999,55.46055555555556],[82.24361111111111,55.43333333333333],[82.13861111111112,55.39611111111111],[82.045,55.35],[81.965,55.295833333333334],[81.90083333333334,55.23527777777778],[81.8536111111111,55.16972222222222],[81.825,55.10111111111111],[81.81527777777778,55.03055555555555],[81.825,54.96027777777778],[81.8536111111111,54.89194444444444],[81.90083333333334,54.82694444444445],[81.965,54.76722222222222],[82.045,54.71388888888889],[82.13861111111112,54.66861111111111],[82.24361111111111,54.63194444444444],[82.35749999999999,54.60527777777778],[82.47722222222222,54.58888888888889],[82.6,54.58361111111111],[82.7225,54.58888888888889],[82.84222222222222,54.60527777777778],[82.95611111111111,54.63194444444444],[83.0611111111111,54.66861111111111],[83.15472222222223,54.71388888888889],[83.23472222222222,54.76722222222222],[83.29888888888888,54.82694444444445],[83.3461111111111,54.89194444444444],[83.37472222222222,54.96027777777778],[83.38444444444445,55.03055555555555],[83.37472222222222,55.10111111111111],[83.36722222222221,55.12222222222222],[83.28333333333333,55.11666666666667],[82.98333333333333,55.06666666666667],[83,55.1],[83.01666666666667,55.15],[82.95,55.233333333333334],[82.91666666666667,55.25],[82.86666666666666,55.31666666666667],[82.96000000000001,55.43111111111111]]]]}},
    {"type":"Feature","properties":{"id":"UNNT_R_APP (LWR A)","minFL":20,"maxFL":39},"geometry":{"type":"MultiPolygon","coordinates":[[[[82.96000000000001,55.43111111111111],[82.95611111111111,55.43333333333333],[82.84222222222222,55.46055555555556],[82.7225,55.477222222222224],[82.6,55.48277777777778],[82.47722222222222,55.477222222222224],[82.35749999999999,55.46055555555556],[82.24361111111111,55.43333333333333],[82.13861111111112,55.39611111111111],[82.045,55.35],[81.965,55.295833333333334],[81.90083333333334,55.23527777777778],[81.8536111111111,55.16972222222222],[81.825,55.10111111111111],[81.81527777777778,55.03055555555555],[81.825,54.96027777777778],[81.8536111111111,54.89194444444444],[81.90083333333334,54.82694444444445],[81.965,54.76722222222222],[82.045,54.71388888888889],[82.13861111111112,54.66861111111111],[82.24361111111111,54.63194444444444],[82.35749999999999,54.60527777777778],[82.47722222222222,54.58888888888889],[82.6,54.58361111111111],[82.69500000000001,54.58833333333334],[82.96666666666667,54.68333333333333],[83,54.75],[83.28611111111111,54.819722222222225],[83.29888888888888,54.82694444444445],[83.3461111111111,54.89194444444444],[83.37472222222222,54.96027777777778],[83.38444444444445,55.03055555555555],[83.37472222222222,55.10111111111111],[83.36722222222221,55.12222222222222],[83.28333333333333,55.11666666666667],[82.98333333333333,55.06666666666667],[83,55.1],[83.01666666666667,55.15],[82.95,55.233333333333334],[82.91666666666667,55.25],[82.86666666666666,55.31666666666667],[82.96000000000001,55.43111111111111]]]]}},
    {"type":"Feature","properties":{"id":"UNBB_TMA","minFL":60,"maxFL":189},"geometry":{"type":"MultiPolygon","coordinates":[[[[83.40333333333334,54.12166666666667],[83.98333333333333,54.06333333333333],[84.23333333333333,53.90833333333333],[84.50166666666667,53.50833333333333],[84.27833333333334,53.28],[82.86333333333333,53.17166666666667],[82.29555555555555,53.34444444444445],[82.22333333333333,53.55888888888889],[82.30749999999999,54.03388888888889],[82.78333333333333,54.026666666666664],[83.40333333333334,54.12166666666667]]]]}},
    {"type":"Feature","properties":{"id":"UNNE_R_APP","minFL":20,"maxFL":264},"geometry":{"type":"MultiPolygon","coordinates":[[[[82.96000000000001,55.43111111111111],[83.25,55.78333333333333],[84.25,55.81666666666667],[84.71666666666667,55.4],[83.8,55.15],[83.36722222222221,55.12222222222222],[83.28333333333333,55.11666666666667],[82.98333333333333,55.06666666666667],[83,55.1],[83.01666666666667,55.15],[82.95,55.233333333333334],[82.91666666666667,55.25],[82.86666666666666,55.31666666666667],[82.96000000000001,55.43111111111111]]]]}},
    {"type":"Feature","properties":{"id":"UNEE_TMA (B)","minFL":100,"maxFL":149},"geometry":{"type":"MultiPolygon","coordinates":[[[[88.68333333333334,54.516666666666666],[88.66666666666667,54.583333333333336],[88.78305555555555,55],[88.97777777777777,55.69888888888889],[88.66833333333334,55.57666666666667],[87.5,54.53333333333333],[87.91666666666667,54.55],[88.68333333333334,54.516666666666666]]]]}},
    {"type":"Feature","properties":{"id":"UNEE_TMA (A)","minFL":60,"maxFL":149},"geometry":{"type":"MultiPolygon","coordinates":[[[[86,56.083333333333336],[85.06666666666666,55.8],[85.2,55.71666666666667],[85.2,55.5],[84.7,55.233333333333334],[84.66666666666667,54.833333333333336],[84.7,54.56666666666667],[85.48333333333333,54.35],[85.75,54.45],[87,54.513333333333335],[87.5,54.53333333333333],[88.66833333333334,55.57666666666667],[88.97777777777777,55.69888888888889],[89.08333333333333,56.06666666666667],[86,56.083333333333336]]]]}},
    {"type":"Feature","properties":{"id":"UNEE_CTR","minFL":20,"maxFL":59},"geometry":{"type":"MultiPolygon","coordinates":[[[[85.74888888888889,54.868611111111115],[85.86333333333333,54.841944444444444],[85.98388888888888,54.82555555555556],[86.10749999999999,54.82027777777778],[86.23083333333334,54.82555555555556],[86.35138888888888,54.841944444444444],[86.46583333333334,54.868611111111115],[86.57138888888889,54.905277777777776],[86.66555555555556,54.95055555555556],[86.74583333333334,55.00388888888889],[86.81055555555555,55.06361111111111],[86.85805555555555,55.12861111111111],[86.88694444444445,55.19694444444444],[86.89666666666668,55.26722222222222],[86.88694444444445,55.33777777777778],[86.85805555555555,55.406388888888884],[86.81055555555555,55.471944444444446],[86.74583333333334,55.5325],[86.66555555555556,55.586666666666666],[86.57138888888889,55.632777777777775],[86.46583333333334,55.669999999999995],[86.35138888888888,55.697222222222216],[86.23083333333334,55.71388888888889],[86.10749999999999,55.71944444444445],[85.98388888888888,55.71388888888889],[85.86333333333333,55.697222222222216],[85.74888888888889,55.669999999999995],[85.64333333333335,55.632777777777775],[85.54916666666666,55.586666666666666],[85.46888888888888,55.5325],[85.40416666666667,55.471944444444446],[85.35666666666665,55.406388888888884],[85.32777777777777,55.33777777777778],[85.31805555555555,55.26722222222222],[85.32777777777777,55.19694444444444],[85.35666666666665,55.12861111111111],[85.40416666666667,55.06361111111111],[85.46888888888888,55.00388888888889],[85.54916666666666,54.95055555555556],[85.64333333333335,54.905277777777776],[85.74888888888889,54.868611111111115]]]]}},
    {"type":"Feature","properties":{"id":"UNBG_CTR","minFL":20,"maxFL":109},"geometry":{"type":"MultiPolygon","coordinates":[[[[84.99444444444444,52.38333333333333],[85.38333333333334,52.46666666666667],[86.05916666666667,52.54472222222222],[86.40333333333334,52.271388888888886],[86.36777777777777,51.92444444444444],[86.05,51.78333333333333],[85.36305555555555,51.735],[84.99444444444444,52.38333333333333]]]]}},
    {"type":"Feature","properties":{"id":"UNBB_CTR","minFL":20,"maxFL":59},"geometry":{"type":"MultiPolygon","coordinates":[[[[82.86333333333333,53.17166666666667],[84.27833333333334,53.28],[84.28416666666666,53.29055555555556],[84.29333333333334,53.36083333333333],[84.28416666666666,53.43111111111111],[84.25666666666666,53.5],[84.21138888888889,53.565555555555555],[84.14944444444446,53.62583333333333],[84.07277777777777,53.68],[83.98277777777778,53.726111111111116],[83.88194444444444,53.763333333333335],[83.77277777777778,53.79055555555556],[83.65777777777778,53.80722222222222],[83.53999999999999,53.812777777777775],[83.42194444444445,53.80722222222222],[83.30694444444444,53.79055555555556],[83.19777777777779,53.763333333333335],[83.09694444444445,53.726111111111116],[83.00694444444444,53.68],[82.93027777777779,53.62583333333333],[82.86833333333333,53.565555555555555],[82.82305555555556,53.5],[82.79555555555555,53.43111111111111],[82.7863888888889,53.36083333333333],[82.79555555555555,53.29055555555556],[82.825,53.225],[82.86333333333333,53.17166666666667]]]]}}
  ]
}