{
"type": "FeatureCollection",
"name": "CDM Airspace Data",
"crs": { "type": "name", "properties": { "name": "urn:ogc:def:crs:OGC:1.3:CRS84" } },
"features": [
    {"type":"Feature","properties":{"id":"VH-Area Radar East Arrivals (TRK)","minFL":81,"maxFL":250},"geometry":{"type":"MultiPolygon","coordinates":[[[[117.5,23],[117.5,22.748611111111114],[117.5,22.12638888888889],[115.69,22.085833333333333],[115.69,22.2925],[115.8888888888889,22.539722222222224],[116.08027777777778,22.77777777777778],[116.16833333333334,22.71833333333333],[117.31166666666667,22.939166666666665]]]]}},
    {"type":"Feature","properties":{"id":"VH-Area Radar East Arrivals (TRK)","minFL":251,"maxFL":365},"geometry":{"type":"MultiPolygon","coordinates":[[[[117.5,23],[117.5,22.748611111111114],[117.5,22.12638888888889],[115.69,22.085833333333333],[114.93194444444445,22.06388888888889],[114.69916666666667,22.162499999999998],[114.69916666666667,22.477777777777778],[114.75888888888889,22.502222222222223],[115.8888888888889,22.539722222222224],[116.08027777777778,22.77777777777778],[116.16833333333334,22.71833333333333],[117.31166666666667,22.939166666666665]]]]}},
    {"type":"Feature","properties":{"id":"VH-Area Radar East Arrivals (TRK)","minFL":366,"maxFL":660},"geometry":{"type":"MultiPolygon","coordinates":[[[[117.5,23],[117.5,22.748611111111114],[117.5,22.12638888888889],[115.69,22.085833333333333],[114.93194444444445,22.06388888888889],[114.69916666666667,22.162499999999998],[114.69916666666667,22.477777777777778],[114.75888888888889,22.502222222222223],[115.8888888888889,22.539722222222224],[116.08027777777778,22.77777777777778],[116.16833333333334,22.71833333333333],[117.31166666666667,22.939166666666665]]]]}},
    {"type":"Feature","properties":{"id":"VH-Area Radar East (TRE)","minFL":81,"maxFL":250},"geometry":{"type":"MultiPolygon","coordinates":[[[[117.5,22.12638888888889],[117.5,21.33888888888889],[117.05472222222222,21.41361111111111],[116.38277777777778,21.526666666666667],[115.46916666666667,21.526666666666667],[115.69,21.956944444444442],[115.69,22.085833333333333]]]]}},
    {"type":"Feature","properties":{"id":"VH-Area Radar East (TRE)","minFL":251,"maxFL":365},"geometry":{"type":"MultiPolygon","coordinates":[[[[117.5,22.12638888888889],[117.5,21.33888888888889],[117.05472222222222,21.41361111111111],[116.38277777777778,21.526666666666667],[115.46916666666667,21.526666666666667],[114.69916666666667,21.695],[114.69916666666667,22.162499999999998],[114.93194444444445,22.06388888888889],[115.69,22.085833333333333]]]]}},
    {"type":"Feature","properties":{"id":"VH-Area Radar East (TRE)","minFL":366,"maxFL":660},"geometry":{"type":"MultiPolygon","coordinates":[[[[117.5,22.12638888888889],[117.5,21.33888888888889],[117.05472222222222,21.41361111111111],[116.38277777777778,21.526666666666667],[115.46916666666667,21.526666666666667],[114.69916666666667,21.695],[114.69916666666667,22.162499999999998],[114.93194444444445,22.06388888888889],[115.69,22.085833333333333]]]]}},
    {"type":"Feature","properties":{"id":"VH-Area Radar South (TRS)","minFL":81,"maxFL":250},"geometry":{"type":"MultiPolygon","coordinates":[[[[117.5,21.33888888888889],[117.5,21],[116.12333333333332,19.323888888888888],[115.61277777777777,20.290555555555557],[115.34027777777777,20.3],[115.16027777777778,20.638333333333332],[116.14944444444446,20.773888888888887],[117.05472222222222,21.41361111111111],[117.5,21.33888888888889]]]]}},
    {"type":"Feature","properties":{"id":"VH-Area Radar South (TRS)","minFL":251,"maxFL":325},"geometry":{"type":"MultiPolygon","coordinates":[[[[117.5,21.33888888888889],[117.5,21],[116.12333333333332,19.323888888888888],[115.61277777777777,20.290555555555557],[115.34027777777777,20.3],[115.16027777777778,20.638333333333332],[116.14944444444446,20.773888888888887],[117.05472222222222,21.41361111111111],[117.5,21.33888888888889]]]]}},
    {"type":"Feature","properties":{"id":"VH-Area Radar South (TRS)","minFL":326,"maxFL":365},"geometry":{"type":"MultiPolygon","coordinates":[[[[117.5,21.33888888888889],[117.5,21],[116.12333333333332,19.323888888888888],[115.61277777777777,20.290555555555557],[115.34027777777777,20.3],[115.16027777777778,20.638333333333332],[114.98,20.976666666666667],[114.9175,20.948611111111113],[114.81805555555555,20.911944444444444],[114.71611111111112,20.881666666666668],[114.61222222222221,20.85777777777778],[114.50666666666666,20.840833333333332],[114.47472222222223,20.837777777777777],[114.33583333333333,21.683333333333334],[114.48861111111111,21.688333333333333],[114.69916666666667,21.695],[115.46916666666667,21.526666666666667],[116.38277777777778,21.526666666666667],[117.05472222222222,21.41361111111111]]]]}},
    {"type":"Feature","properties":{"id":"VH-Area Radar South (TRS)","minFL":366,"maxFL":660},"geometry":{"type":"MultiPolygon","coordinates":[[[[117.5,21.33888888888889],[117.5,21],[116.12333333333332,19.323888888888888],[115.61277777777777,20.290555555555557],[115.34027777777777,20.3],[115.16027777777778,20.638333333333332],[114.98,20.976666666666667],[114.9175,20.948611111111113],[114.81805555555555,20.911944444444444],[114.71611111111112,20.881666666666668],[114.61222222222221,20.85777777777778],[114.50666666666666,20.840833333333332],[114.47472222222223,20.837777777777777],[114.33583333333333,21.683333333333334],[114.48861111111111,21.688333333333333],[114.69916666666667,21.695],[115.46916666666667,21.526666666666667],[116.38277777777778,21.526666666666667],[117.05472222222222,21.41361111111111]]]]}},
    {"type":"Feature","properties":{"id":"VH-Area Radar South (TRZ)","minFL":81,"maxFL":250},"geometry":{"type":"MultiPolygon","coordinates":[[[[115.16027777777778,20.638333333333332],[114.98,20.976666666666667],[115.01388888888889,20.991666666666667],[115.10666666666665,21.040833333333335],[115.19527777777778,21.09583333333333],[115.27972222222222,21.156388888888888],[115.28777777777778,21.163055555555555],[115.46916666666667,21.526666666666667],[116.38277777777778,21.526666666666667],[117.05472222222222,21.41361111111111],[116.14944444444446,20.773888888888887]]]]}},
    {"type":"Feature","properties":{"id":"VH-Area Radar South (TRZ)","minFL":251,"maxFL":325},"geometry":{"type":"MultiPolygon","coordinates":[[[[115.16027777777778,20.638333333333332],[114.98,20.976666666666667],[114.9175,20.948611111111113],[114.81805555555555,20.911944444444444],[114.71611111111112,20.881666666666668],[114.61222222222221,20.85777777777778],[114.50666666666666,20.840833333333332],[114.47472222222223,20.837777777777777],[114.33583333333333,21.683333333333334],[114.48861111111111,21.688333333333333],[114.69916666666667,21.695],[115.46916666666667,21.526666666666667],[116.38277777777778,21.526666666666667],[117.05472222222222,21.41361111111111],[116.14944444444446,20.773888888888887]]]]}},
    {"type":"Feature","properties":{"id":"VH-Area Radar Central (TRC)","minFL":81,"maxFL":250},"geometry":{"type":"MultiPolygon","coordinates":[[[[114.98,20.976666666666667],[115.34027777777777,20.3],[115.61277777777777,20.290555555555557],[116.12333333333332,19.323888888888888],[115.5375,18.59861111111111],[115.39916666666667,19],[114.015,19],[113.97833333333334,19.82],[114.14916666666667,19.99527777777778],[114.20611111111111,20.829722222222223],[114.29305555555555,20.826944444444443],[114.4,20.830555555555556],[114.47472222222223,20.837777777777777],[114.50666666666666,20.840833333333332],[114.61222222222221,20.85777777777778],[114.71611111111112,20.881666666666668],[114.81805555555555,20.911944444444444],[114.9175,20.948611111111113]]]]}},
    {"type":"Feature","properties":{"id":"VH-Area Radar Central (TRC)","minFL":251,"maxFL":365},"geometry":{"type":"MultiPolygon","coordinates":[[[[114.98,20.976666666666667],[115.34027777777777,20.3],[115.61277777777777,20.290555555555557],[116.12333333333332,19.323888888888888],[115.5375,18.59861111111111],[115.39916666666667,19],[114.015,19],[113.97833333333334,19.82],[114.14916666666667,19.99527777777778],[114.20611111111111,20.829722222222223],[114.29305555555555,20.826944444444443],[114.4,20.830555555555556],[114.47472222222223,20.837777777777777],[114.50666666666666,20.840833333333332],[114.61222222222221,20.85777777777778],[114.71611111111112,20.881666666666668],[114.81805555555555,20.911944444444444],[114.9175,20.948611111111113]]]]}},
    {"type":"Feature","properties":{"id":"VH-Area Radar Central (TRC)","minFL":366,"maxFL":660},"geometry":{"type":"MultiPolygon","coordinates":[[[[114.98,20.976666666666667],[115.34027777777777,20.3],[115.61277777777777,20.290555555555557],[116.12333333333332,19.323888888888888],[115.5375,18.59861111111111],[115.39916666666667,19],[114.015,19],[113.97833333333334,19.82],[114.14916666666667,19.99527777777778],[114.20611111111111,20.829722222222223],[114.29305555555555,20.826944444444443],[114.4,20.830555555555556],[114.47472222222223,20.837777777777777],[114.50666666666666,20.840833333333332],[114.61222222222221,20.85777777777778],[114.71611111111112,20.881666666666668],[114.81805555555555,20.911944444444444],[114.9175,20.948611111111113]]]]}},
    {"type":"Feature","properties":{"id":"VH-Area Radar West (TRW)","minFL":81,"maxFL":250},"geometry":{"type":"MultiPolygon","coordinates":[[[[113.65777777777778,20.96],[113.17500000000001,20.233055555555556],[112.99333333333334,20.233055555555556],[112.7286111111111,19.69611111111111],[111.5,19.5],[111.5,21.108333333333334],[112.95166666666667,21.579722222222223],[112.97916666666667,21.531666666666666],[113.03611111111111,21.448055555555555],[113.09916666666666,21.368333333333332],[113.16805555555555,21.29277777777778],[113.2425,21.221666666666664],[113.32222222222222,21.15583333333333],[113.40694444444445,21.095277777777778],[113.40833333333335,21.094166666666666],[113.49583333333334,21.040000000000003],[113.5886111111111,20.990833333333335]]]]}},
    {"type":"Feature","properties":{"id":"VH-Area Radar West (TRW)","minFL":251,"maxFL":365},"geometry":{"type":"MultiPolygon","coordinates":[[[[114.33583333333333,21.683333333333334],[114.47472222222223,20.837777777777777],[114.4,20.830555555555556],[114.29305555555555,20.826944444444443],[114.18583333333333,20.830555555555556],[114.09638888888888,20.83972222222222],[113.99055555555556,20.85666666666667],[113.88666666666667,20.880555555555556],[113.78444444444445,20.910833333333333],[113.685,20.947777777777777],[113.65777777777778,20.96],[113.17500000000001,20.233055555555556],[112.99333333333334,20.233055555555556],[112.7286111111111,19.69611111111111],[111.5,19.5],[111.5,21.108333333333334],[112.95166666666667,21.579722222222223],[113.26777777777778,21.6825],[113.44833333333334,21.863333333333333],[113.66444444444446,22.118333333333332],[113.69805555555556,22.159444444444443],[113.75944444444444,22.231666666666666],[113.83972222222222,22.326666666666668],[113.86666666666666,22.358055555555556],[113.86666666666666,22.398055555555555],[113.8938888888889,22.42388888888889],[113.90861111111111,22.43777777777778],[114.03166666666667,22.481944444444444],[114.21138888888889,22.54638888888889],[114.21861111111112,22.540833333333335],[114.26805555555555,22.58222222222222],[114.29388888888889,22.576944444444443],[114.39805555555556,22.60888888888889],[114.47555555555556,22.53472222222222],[114.48333333333333,22.4625],[114.50222222222222,22.448888888888888],[114.50694444444444,22.399722222222223],[114.69916666666667,22.477777777777778],[114.69916666666667,22.370833333333334],[114.69916666666667,22.185],[114.69916666666667,22.162499999999998],[114.69916666666667,21.980833333333333],[114.69916666666667,21.695],[114.48861111111111,21.688333333333333]]]]}},
    {"type":"Feature","properties":{"id":"VH-Area Radar West (TRW)","minFL":366,"maxFL":660},"geometry":{"type":"MultiPolygon","coordinates":[[[[114.33583333333333,21.683333333333334],[114.47472222222223,20.837777777777777],[114.4,20.830555555555556],[114.29305555555555,20.826944444444443],[114.18583333333333,20.830555555555556],[114.09638888888888,20.83972222222222],[113.99055555555556,20.85666666666667],[113.88666666666667,20.880555555555556],[113.78444444444445,20.910833333333333],[113.685,20.947777777777777],[113.65777777777778,20.96],[113.17500000000001,20.233055555555556],[112.99333333333334,20.233055555555556],[112.7286111111111,19.69611111111111],[111.5,19.5],[111.5,21.108333333333334],[112.95166666666667,21.579722222222223],[113.26777777777778,21.6825],[113.44833333333334,21.863333333333333],[113.66444444444446,22.118333333333332],[113.69805555555556,22.159444444444443],[113.75944444444444,22.231666666666666],[113.83972222222222,22.326666666666668],[113.86666666666666,22.358055555555556],[113.86666666666666,22.398055555555555],[113.8938888888889,22.42388888888889],[113.90861111111111,22.43777777777778],[114.03166666666667,22.481944444444444],[114.21138888888889,22.54638888888889],[114.21861111111112,22.540833333333335],[114.26805555555555,22.58222222222222],[114.29388888888889,22.576944444444443],[114.39805555555556,22.60888888888889],[114.47555555555556,22.53472222222222],[114.48333333333333,22.4625],[114.50222222222222,22.448888888888888],[114.50694444444444,22.399722222222223],[114.69916666666667,22.477777777777778],[114.69916666666667,22.370833333333334],[114.69916666666667,22.185],[114.69916666666667,22.162499999999998],[114.69916666666667,21.980833333333333],[114.69916666666667,21.695],[114.48861111111111,21.688333333333333]]]]}},
    {"type":"Feature","properties":{"id":"VH-Area Radar West (TRV)","minFL":81,"maxFL":250},"geometry":{"type":"MultiPolygon","coordinates":[[[[114.20611111111111,20.829722222222223],[114.14916666666667,19.99527777777778],[113.97833333333334,19.82],[114.015,19],[113.30583333333333,19],[112.57527777777777,18.28111111111111],[111.5,19.5],[112.7286111111111,19.69611111111111],[112.99333333333334,20.233055555555556],[113.17500000000001,20.233055555555556],[113.65777777777778,20.96],[113.685,20.947777777777777],[113.78444444444445,20.910833333333333],[113.88666666666667,20.880555555555556],[113.99055555555556,20.85666666666667],[114.09638888888888,20.83972222222222],[114.18583333333333,20.830555555555556]]]]}},
    {"type":"Feature","properties":{"id":"VH-Area Radar West (TRV)","minFL":251,"maxFL":365},"geometry":{"type":"MultiPolygon","coordinates":[[[[114.20611111111111,20.829722222222223],[114.14916666666667,19.99527777777778],[113.97833333333334,19.82],[114.015,19],[113.30583333333333,19],[112.57527777777777,18.28111111111111],[111.5,19.5],[112.7286111111111,19.69611111111111],[112.99333333333334,20.233055555555556],[113.17500000000001,20.233055555555556],[113.65777777777778,20.96],[113.685,20.947777777777777],[113.78444444444445,20.910833333333333],[113.88666666666667,20.880555555555556],[113.99055555555556,20.85666666666667],[114.09638888888888,20.83972222222222],[114.18583333333333,20.830555555555556]]]]}},
    {"type":"Feature","properties":{"id":"VH-Area Radar West (TRV)","minFL":366,"maxFL":660},"geometry":{"type":"MultiPolygon","coordinates":[[[[114.20611111111111,20.829722222222223],[114.14916666666667,19.99527777777778],[113.97833333333334,19.82],[114.015,19],[113.30583333333333,19],[112.57527777777777,18.28111111111111],[111.5,19.5],[112.7286111111111,19.69611111111111],[112.99333333333334,20.233055555555556],[113.17500000000001,20.233055555555556],[113.65777777777778,20.96],[113.685,20.947777777777777],[113.78444444444445,20.910833333333333],[113.88666666666667,20.880555555555556],[113.99055555555556,20.85666666666667],[114.09638888888888,20.83972222222222],[114.18583333333333,20.830555555555556]]]]}},
    {"type":"Feature","properties":{"id":"VH-Area Radar West (TRD)","minFL":81,"maxFL":250},"geometry":{"type":"MultiPolygon","coordinates":[[[[115.39916666666667,19],[115.5375,18.59861111111111],[114,16.666666666666668],[112.57527777777777,18.28111111111111],[113.30583333333333,19],[114.015,19]]]]}},
    {"type":"Feature","properties":{"id":"VH-Area Radar West (TRD)","minFL":251,"maxFL":365},"geometry":{"type":"MultiPolygon","coordinates":[[[[115.39916666666667,19],[115.5375,18.59861111111111],[114,16.666666666666668],[112.57527777777777,18.28111111111111],[113.30583333333333,19],[114.015,19]]]]}},
    {"type":"Feature","properties":{"id":"VH-Area Radar West (TRD)","minFL":366,"maxFL":660},"geometry":{"type":"MultiPolygon","coordinates":[[[[115.39916666666667,19],[115.5375,18.59861111111111],[114,16.666666666666668],[112.57527777777777,18.28111111111111],[113.30583333333333,19],[114.015,19]]]]}},
    {"type":"Feature","properties":{"id":"VH-Terminal Radar East (TME)","minFL":21,"maxFL":80},"geometry":{"type":"MultiPolygon","coordinates":[[[[114.69916666666667,22.477777777777778],[114.75888888888889,22.502222222222223],[114.87249999999999,22.50583333333333],[114.88555555555556,22.474444444444444],[114.90972222222223,22.390277777777776],[114.92444444444445,22.30388888888889],[114.92944444444444,22.216944444444444],[114.92444444444445,22.13],[114.90972222222223,22.04388888888889],[114.88555555555556,21.959722222222222],[114.87805555555555,21.942222222222224],[114.80222222222221,21.958333333333332],[114.69916666666667,21.980833333333333]]]]}},
    {"type":"Feature","properties":{"id":"VH-Terminal Radar East (TME)","minFL":81,"maxFL":250},"geometry":{"type":"MultiPolygon","coordinates":[[[[115.8888888888889,22.539722222222224],[115.69,22.2925],[115.69,21.956944444444442],[114.92361111111111,21.932222222222222],[114.80222222222221,21.958333333333332],[114.69916666666667,21.980833333333333],[114.69916666666667,22.162499999999998],[114.69916666666667,22.185],[114.69916666666667,22.370833333333334],[114.69916666666667,22.477777777777778],[114.75888888888889,22.502222222222223],[115.8888888888889,22.539722222222224]]]]}},
    {"type":"Feature","properties":{"id":"VH-Terminal Departure East (TDE)","minFL":21,"maxFL":80},"geometry":{"type":"MultiPolygon","coordinates":[[[[114.80222222222221,21.958333333333332],[114.87805555555555,21.942222222222224],[114.85166666666666,21.878611111111113],[114.81277777777777,21.80777777777778]]]]}},
    {"type":"Feature","properties":{"id":"VH-Terminal Departure East (TDE)","minFL":21,"maxFL":80},"geometry":{"type":"MultiPolygon","coordinates":[[[[114.72944444444444,21.69611111111111],[114.71555555555555,21.68027777777778],[114.69916666666667,21.695]]]]}},
    {"type":"Feature","properties":{"id":"VH-Terminal Departure East (TDE)","minFL":81,"maxFL":130},"geometry":{"type":"MultiPolygon","coordinates":[[[[115.69,21.956944444444442],[115.53972222222222,21.668333333333333],[115.28777777777778,21.163055555555555],[114.69916666666667,21.695],[114.82027777777778,21.698888888888888],[114.80222222222221,21.958333333333332],[114.92361111111111,21.932222222222222]]]]}},
    {"type":"Feature","properties":{"id":"VH-Terminal Departure East (TDE)","minFL":131,"maxFL":250},"geometry":{"type":"MultiPolygon","coordinates":[[[[115.69,21.956944444444442],[115.53972222222222,21.668333333333333],[115.28777777777778,21.163055555555555],[114.69916666666667,21.695],[114.48861111111111,21.688333333333333],[114.46916666666667,21.934722222222224],[114.53222222222222,21.936944444444446],[114.57944444444443,22.00638888888889],[114.69916666666667,21.980833333333333],[114.80222222222221,21.958333333333332],[114.92361111111111,21.932222222222222]]]]}},
    {"type":"Feature","properties":{"id":"VH-Terminal Radar South (TMS)","minFL":21,"maxFL":80},"geometry":{"type":"MultiPolygon","coordinates":[[[[114.71555555555555,21.68027777777778],[114.69833333333334,21.660833333333333],[114.63194444444444,21.599444444444444],[114.5586111111111,21.544722222222223],[114.47972222222222,21.497500000000002],[114.39583333333334,21.458333333333332],[114.35694444444444,21.444444444444446],[114.33583333333333,21.683333333333334],[114.69916666666667,21.695]]]]}},
    {"type":"Feature","properties":{"id":"VH-Terminal Radar South (TMS)","minFL":81,"maxFL":250},"geometry":{"type":"MultiPolygon","coordinates":[[[[114.69916666666667,21.695],[115.28777777777778,21.163055555555555],[115.27972222222222,21.156388888888888],[115.19527777777778,21.09583333333333],[115.10666666666665,21.040833333333335],[115.01388888888889,20.991666666666667],[114.98,20.976666666666667],[114.9175,20.948611111111113],[114.81805555555555,20.911944444444444],[114.71611111111112,20.881666666666668],[114.61222222222221,20.85777777777778],[114.50666666666666,20.840833333333332],[114.41166666666668,20.831666666666667],[114.33583333333333,21.683333333333334],[114.48861111111111,21.688333333333333]]]]}},
    {"type":"Feature","properties":{"id":"VH-Terminal Departure Central (TDC)","minFL":21,"maxFL":80},"geometry":{"type":"MultiPolygon","coordinates":[[[[114.35694444444444,21.444444444444446],[114.30805555555555,21.427222222222223],[114.21694444444445,21.404722222222222],[114.12388888888889,21.391111111111112],[114.03,21.386666666666667],[113.93583333333333,21.391111111111112],[113.90861111111111,21.39527777777778],[113.95972222222223,21.466666666666665],[113.96916666666667,21.67138888888889],[114.33583333333333,21.683333333333334]]]]}},
    {"type":"Feature","properties":{"id":"VH-Terminal Departure Central (TDC)","minFL":81,"maxFL":250},"geometry":{"type":"MultiPolygon","coordinates":[[[[114.33583333333333,21.683333333333334],[114.41166666666668,20.831666666666667],[114.4,20.830555555555556],[114.29305555555555,20.826944444444443],[114.20611111111111,20.829722222222223],[114.18583333333333,20.830555555555556],[114.09638888888888,20.83972222222222],[113.99055555555556,20.85666666666667],[113.88666666666667,20.880555555555556],[113.78444444444445,20.910833333333333],[113.685,20.947777777777777],[113.65777777777778,20.96],[113.5886111111111,20.990833333333335],[113.49583333333334,21.040000000000003],[113.40833333333335,21.094166666666666],[113.77694444444444,21.211111111111112],[113.95972222222223,21.466666666666665],[113.96916666666667,21.67138888888889]]]]}},
    {"type":"Feature","properties":{"id":"VH-Terminal Radar West (TMW)","minFL":191,"maxFL":250},"geometry":{"type":"MultiPolygon","coordinates":[[[[113.96916666666667,21.67138888888889],[113.95972222222223,21.466666666666665],[113.77694444444444,21.211111111111112],[113.40833333333335,21.094166666666666],[113.40694444444445,21.095277777777778],[113.32222222222222,21.15583333333333],[113.2425,21.221666666666664],[113.16805555555555,21.29277777777778],[113.09916666666666,21.368333333333332],[113.03611111111111,21.448055555555555],[112.97916666666667,21.531666666666666],[112.95166666666667,21.579722222222223],[113.26777777777778,21.6825],[113.44833333333334,21.863333333333333],[113.66444444444446,22.118333333333332],[113.70833333333334,22.010277777777777],[113.73555555555555,21.94388888888889],[113.7825,21.828611111111112],[113.7975,21.791944444444447],[113.84833333333333,21.6675]]]]}},
    {"type":"Feature","properties":{"id":"VH-Terminal Radar Low (TML)","minFL":110,"maxFL":120},"geometry":{"type":"MultiPolygon","coordinates":[[[[113.84833333333333,21.6675],[113.70694444444445,21.565],[113.63777777777779,21.68166666666667],[113.7825,21.828611111111112]]]]}},
    {"type":"Feature","properties":{"id":"VH-Terminal Radar Low (TML)","minFL":121,"maxFL":190},"geometry":{"type":"MultiPolygon","coordinates":[[[[113.96916666666667,21.67138888888889],[113.95972222222223,21.466666666666665],[113.77694444444444,21.211111111111112],[113.40833333333335,21.094166666666666],[113.40694444444445,21.095277777777778],[113.32222222222222,21.15583333333333],[113.2425,21.221666666666664],[113.16805555555555,21.29277777777778],[113.09916666666666,21.368333333333332],[113.03611111111111,21.448055555555555],[112.97916666666667,21.531666666666666],[112.95166666666667,21.579722222222223],[113.26777777777778,21.6825],[113.44833333333334,21.863333333333333],[113.66444444444446,22.118333333333332],[113.70833333333334,22.010277777777777],[113.73555555555555,21.94388888888889],[113.7825,21.828611111111112],[113.7975,21.791944444444447],[113.84833333333333,21.6675]]]]}},
    {"type":"Feature","properties":{"id":"VH-Macao Approach Radar (MCU)","minFL":21,"maxFL":80},"geometry":{"type":"MultiPolygon","coordinates":[[[[113.90861111111111,21.39527777777778],[113.84277777777777,21.404722222222222],[113.75194444444445,21.427222222222223],[113.66388888888889,21.458333333333332],[113.58,21.497500000000002],[113.50111111111111,21.544722222222223],[113.42805555555556,21.599444444444444],[113.36138888888888,21.660833333333333],[113.30749999999999,21.72222222222222],[113.44833333333334,21.863333333333333],[113.66444444444446,22.118333333333332],[113.84833333333333,21.6675],[113.96916666666667,21.67138888888889],[113.95972222222223,21.466666666666665]]]]}},
    {"type":"Feature","properties":{"id":"VH-Macao Approach Radar (MCU)","minFL":81,"maxFL":109},"geometry":{"type":"MultiPolygon","coordinates":[[[[113.96916666666667,21.67138888888889],[113.95972222222223,21.466666666666665],[113.77694444444444,21.211111111111112],[113.40833333333335,21.094166666666666],[113.40694444444445,21.095277777777778],[113.32222222222222,21.15583333333333],[113.2425,21.221666666666664],[113.16805555555555,21.29277777777778],[113.09916666666666,21.368333333333332],[113.03611111111111,21.448055555555555],[112.97916666666667,21.531666666666666],[112.95166666666667,21.579722222222223],[113.26777777777778,21.6825],[113.44833333333334,21.863333333333333],[113.66444444444446,22.118333333333332],[113.70833333333334,22.010277777777777],[113.73472222222222,21.94611111111111],[113.7825,21.828611111111112],[113.7975,21.791944444444447],[113.84833333333333,21.6675]]]]}},
    {"type":"Feature","properties":{"id":"VH-Macao Approach Radar (MCU)","minFL":110,"maxFL":120},"geometry":{"type":"MultiPolygon","coordinates":[[[[113.96916666666667,21.67138888888889],[113.95972222222223,21.466666666666665],[113.77694444444444,21.211111111111112],[113.40833333333335,21.094166666666666],[113.40694444444445,21.095277777777778],[113.32222222222222,21.15583333333333],[113.2425,21.221666666666664],[113.16805555555555,21.29277777777778],[113.09916666666666,21.368333333333332],[113.03611111111111,21.448055555555555],[112.97916666666667,21.531666666666666],[112.95166666666667,21.579722222222223],[113.26777777777778,21.6825],[113.44833333333334,21.863333333333333],[113.66444444444446,22.118333333333332],[113.70833333333334,22.010277777777777],[113.73472222222222,21.94611111111111],[113.7825,21.828611111111112],[113.63777777777779,21.68166666666667],[113.70694444444445,21.565],[113.84833333333333,21.6675]]]]}},
    {"type":"Feature","properties":{"id":"VH-Final Approach Director (FAD)","minFL":21,"maxFL":90},"geometry":{"type":"MultiPolygon","coordinates":[[[[113.73555555555555,21.94388888888889],[113.70833333333334,22.010277777777777],[113.66444444444446,22.118333333333332],[113.69805555555556,22.159444444444443],[113.66583333333334,22.228888888888886],[113.76,22.333055555555557],[113.8863888888889,22.322777777777777],[113.91722222222222,22.245555555555555],[114.02777777777777,22.145555555555553],[113.96000000000001,22.03888888888889],[113.73555555555555,21.94388888888889]]]]}},
    {"type":"Feature","properties":{"id":"VH-Final Approach Director (FAD)","minFL":21,"maxFL":60},"geometry":{"type":"MultiPolygon","coordinates":[[[[113.9375,22.316111111111113],[113.92500000000001,22.31222222222222],[113.89444444444445,22.302500000000002],[113.8863888888889,22.322777777777777],[113.76,22.333055555555557],[113.82888888888888,22.409444444444443],[113.89083333333333,22.43138888888889],[113.93472222222222,22.322777777777777],[113.9375,22.316111111111113]]]]}},
    {"type":"Feature","properties":{"id":"VH-Final Approach Director (FAD)","minFL":21,"maxFL":60},"geometry":{"type":"MultiPolygon","coordinates":[[[[114.42611111111111,22.222777777777775],[114.07888888888888,22.147222222222222],[114.00944444444444,22.272499999999997],[113.94722222222222,22.253888888888888],[113.92500000000001,22.31222222222222],[113.9375,22.316111111111113],[113.93472222222222,22.322777777777777],[114.33999999999999,22.452777777777776],[114.42611111111111,22.222777777777775]]]]}},
    {"type":"Feature","properties":{"id":"VH-Final Approach Director (FAD)","minFL":21,"maxFL":90},"geometry":{"type":"MultiPolygon","coordinates":[[[[114.33999999999999,22.452777777777776],[113.93472222222222,22.322777777777777],[113.89083333333333,22.43138888888889],[113.90861111111111,22.43777777777778],[114.03166666666667,22.481944444444444],[114.21138888888889,22.54638888888889],[114.21861111111112,22.540833333333335],[114.26805555555555,22.58222222222222],[114.29388888888889,22.576944444444443],[114.33999999999999,22.452777777777776]]]]}},
    {"type":"Feature","properties":{"id":"VH-Final Approach Director (FAD)","minFL":21,"maxFL":130},"geometry":{"type":"MultiPolygon","coordinates":[[[[114.29388888888889,22.576944444444443],[114.39805555555556,22.60888888888889],[114.47555555555556,22.53472222222222],[114.48333333333333,22.4625],[114.50222222222222,22.448888888888888],[114.50694444444444,22.399722222222223],[114.50805555555556,22.240555555555556],[114.42611111111111,22.222777777777775],[114.33999999999999,22.452777777777776],[114.29388888888889,22.576944444444443]]]]}},
    {"type":"Feature","properties":{"id":"VH-Final Approach Director (FAD)","minFL":21,"maxFL":60},"geometry":{"type":"MultiPolygon","coordinates":[[[[113.76,22.333055555555557],[113.82888888888888,22.409444444444443],[113.89083333333333,22.43138888888889],[113.93472222222222,22.322777777777777],[113.9375,22.316111111111113],[113.92500000000001,22.31222222222222],[113.89444444444445,22.302500000000002],[113.8863888888889,22.322777777777777],[113.76,22.333055555555557]]]]}},
    {"type":"Feature","properties":{"id":"VH-Approach (APP)","minFL":21,"maxFL":80},"geometry":{"type":"MultiPolygon","coordinates":[[[[114.48861111111111,21.688333333333333],[114.33583333333333,21.683333333333334],[113.96916666666667,21.67138888888889],[113.84833333333333,21.6675],[113.7975,21.791944444444447],[113.7825,21.828611111111112],[113.73555555555555,21.94388888888889],[113.96000000000001,22.03888888888889],[114.19638888888889,21.925833333333333],[114.46916666666667,21.934722222222224],[114.53222222222222,21.936944444444446],[114.57944444444443,22.00638888888889],[114.69916666666667,22.185],[114.69916666666667,22.162499999999998],[114.69916666666667,21.980833333333333],[114.80222222222221,21.958333333333332],[114.81277777777777,21.80777777777778],[114.80888888888889,21.801111111111112],[114.75777777777778,21.72833333333333],[114.72944444444444,21.69611111111111],[114.69916666666667,21.695],[114.48861111111111,21.688333333333333]]]]}},
    {"type":"Feature","properties":{"id":"VH-Approach (APP)","minFL":81,"maxFL":130},"geometry":{"type":"MultiPolygon","coordinates":[[[[114.48861111111111,21.688333333333333],[114.33583333333333,21.683333333333334],[113.96916666666667,21.67138888888889],[113.84833333333333,21.6675],[113.7975,21.791944444444447],[113.7825,21.828611111111112],[113.73555555555555,21.94388888888889],[113.96000000000001,22.03888888888889],[114.19638888888889,21.925833333333333],[114.46916666666667,21.934722222222224],[114.53222222222222,21.936944444444446],[114.57944444444443,22.00638888888889],[114.69916666666667,22.185],[114.69916666666667,22.162499999999998],[114.69916666666667,21.980833333333333],[114.80222222222221,21.958333333333332],[114.82027777777778,21.698888888888888],[114.69916666666667,21.695],[114.48861111111111,21.688333333333333]]]]}},
    {"type":"Feature","properties":{"id":"VH-Approach (APP)","minFL":21,"maxFL":110},"geometry":{"type":"MultiPolygon","coordinates":[[[[114.69916666666667,22.185],[114.57944444444443,22.00638888888889],[114.53222222222222,21.936944444444446],[114.46916666666667,21.934722222222224],[114.38111111111111,22.050555555555555],[114.4925,22.05388888888889],[114.69916666666667,22.370833333333334],[114.69916666666667,22.185]]]]}},
    {"type":"Feature","properties":{"id":"VH-Approach (APP)","minFL":21,"maxFL":90},"geometry":{"type":"MultiPolygon","coordinates":[[[[113.96000000000001,22.03888888888889],[114.19638888888889,21.925833333333333],[114.46916666666667,21.934722222222224],[114.38111111111111,22.050555555555555],[114.2425,22.046111111111113],[114.02777777777777,22.145555555555553]]]]}},
    {"type":"Feature","properties":{"id":"VH-Approach (APP)","minFL":21,"maxFL":80},"geometry":{"type":"MultiPolygon","coordinates":[[[[114.48861111111111,21.688333333333333],[114.33583333333333,21.683333333333334],[113.96916666666667,21.67138888888889],[113.84833333333333,21.6675],[113.7975,21.791944444444447],[113.88666666666667,21.88361111111111],[114.13083333333333,21.89],[114.20222222222222,21.891944444444444],[114.33666666666666,21.94611111111111],[114.38166666666666,22.01222222222222],[114.42611111111111,22.222777777777775],[114.50805555555556,22.240555555555556],[114.50694444444444,22.399722222222223],[114.69916666666667,22.477777777777778],[114.69916666666667,22.370833333333334],[114.69916666666667,22.185],[114.69916666666667,22.162499999999998],[114.69916666666667,21.980833333333333],[114.80222222222221,21.958333333333332],[114.81277777777777,21.80777777777778],[114.80888888888889,21.801111111111112],[114.75777777777778,21.72833333333333],[114.72944444444444,21.69611111111111],[114.69916666666667,21.695],[114.48861111111111,21.688333333333333]]]]}},
    {"type":"Feature","properties":{"id":"VH-Approach (APP)","minFL":81,"maxFL":130},"geometry":{"type":"MultiPolygon","coordinates":[[[[114.48861111111111,21.688333333333333],[114.33583333333333,21.683333333333334],[113.96916666666667,21.67138888888889],[113.84833333333333,21.6675],[113.7975,21.791944444444447],[113.88666666666667,21.88361111111111],[114.13083333333333,21.89],[114.20222222222222,21.891944444444444],[114.33666666666666,21.94611111111111],[114.38166666666666,22.01222222222222],[114.42611111111111,22.222777777777775],[114.50805555555556,22.240555555555556],[114.50694444444444,22.399722222222223],[114.69916666666667,22.477777777777778],[114.69916666666667,22.370833333333334],[114.69916666666667,22.185],[114.69916666666667,22.162499999999998],[114.69916666666667,21.980833333333333],[114.80222222222221,21.958333333333332],[114.82027777777778,21.698888888888888],[114.69916666666667,21.695],[114.48861111111111,21.688333333333333]]]]}},
    {"type":"Feature","properties":{"id":"VH-Approach (APP)","minFL":21,"maxFL":90},"geometry":{"type":"MultiPolygon","coordinates":[[[[114.13083333333333,21.89],[114.20222222222222,21.891944444444444],[114.33666666666666,21.94611111111111],[114.38166666666666,22.01222222222222],[114.33444444444444,22.04277777777778],[114.11833333333333,22.075555555555557],[114.18027777777779,21.96388888888889],[114.13083333333333,21.89]]]]}},
    {"type":"Feature","properties":{"id":"VH-Approach (APP)","minFL":21,"maxFL":80},"geometry":{"type":"MultiPolygon","coordinates":[[[[114.11833333333333,22.075555555555557],[114.33444444444444,22.04277777777778],[114.38166666666666,22.01222222222222],[114.42611111111111,22.222777777777775],[114.07888888888888,22.147222222222222],[114.11833333333333,22.075555555555557]]]]}},
    {"type":"Feature","properties":{"id":"VH-Departure High (DEH)","minFL":91,"maxFL":130},"geometry":{"type":"MultiPolygon","coordinates":[[[[113.73555555555555,21.94388888888889],[113.70833333333334,22.010277777777777],[113.66444444444446,22.118333333333332],[113.69805555555556,22.159444444444443],[113.66583333333334,22.228888888888886],[113.76,22.333055555555557],[113.8863888888889,22.322777777777777],[113.91722222222222,22.245555555555555],[114.02777777777777,22.145555555555553],[113.96000000000001,22.03888888888889],[113.73555555555555,21.94388888888889]]]]}},
    {"type":"Feature","properties":{"id":"VH-Departure High (DEH)","minFL":131,"maxFL":250},"geometry":{"type":"MultiPolygon","coordinates":[[[[113.73555555555555,21.94388888888889],[113.70833333333334,22.010277777777777],[113.66444444444446,22.118333333333332],[113.69805555555556,22.159444444444443],[113.75944444444444,22.231666666666666],[113.83972222222222,22.326666666666668],[113.8863888888889,22.322777777777777],[113.91722222222222,22.245555555555555],[114.02777777777777,22.145555555555553],[113.96000000000001,22.03888888888889],[113.73555555555555,21.94388888888889]]]]}},
    {"type":"Feature","properties":{"id":"VH-Departure High (DEH)","minFL":131,"maxFL":250},"geometry":{"type":"MultiPolygon","coordinates":[[[[114.38111111111111,22.050555555555555],[114.17222222222223,22.305833333333332],[114.0786111111111,22.36138888888889],[114.03166666666667,22.481944444444444],[113.90861111111111,22.43777777777778],[113.8938888888889,22.42388888888889],[113.86666666666666,22.398055555555555],[113.86666666666666,22.358055555555556],[113.83972222222222,22.326666666666668],[113.8863888888889,22.322777777777777],[113.89444444444445,22.302500000000002],[113.91722222222222,22.245555555555555],[114.02777777777777,22.145555555555553],[114.2425,22.046111111111113],[114.38111111111111,22.050555555555555]]]]}},
    {"type":"Feature","properties":{"id":"VH-Departure High (DEH)","minFL":161,"maxFL":250},"geometry":{"type":"MultiPolygon","coordinates":[[[[114.38111111111111,22.050555555555555],[114.17222222222223,22.305833333333332],[114.0786111111111,22.36138888888889],[114.03166666666667,22.481944444444444],[114.21138888888889,22.54638888888889],[114.21861111111112,22.540833333333335],[114.26805555555555,22.58222222222222],[114.29388888888889,22.576944444444443],[114.39805555555556,22.60888888888889],[114.47555555555556,22.53472222222222],[114.48333333333333,22.4625],[114.50222222222222,22.448888888888888],[114.50694444444444,22.399722222222223],[114.69916666666667,22.477777777777778],[114.69916666666667,22.370833333333334],[114.69916666666667,22.185],[114.69916666666667,22.162499999999998],[114.69916666666667,21.980833333333333],[114.57944444444443,22.00638888888889],[114.53222222222222,21.936944444444446],[114.46916666666667,21.934722222222224],[114.48861111111111,21.688333333333333],[114.33583333333333,21.683333333333334],[113.96916666666667,21.67138888888889],[113.84833333333333,21.6675],[113.7975,21.791944444444447],[113.7825,21.828611111111112],[113.73555555555555,21.94388888888889],[113.96000000000001,22.03888888888889],[114.02777777777777,22.145555555555553],[114.2425,22.046111111111113],[114.38111111111111,22.050555555555555]]]]}},
    {"type":"Feature","properties":{"id":"VH-Departure High (DEH)","minFL":91,"maxFL":130},"geometry":{"type":"MultiPolygon","coordinates":[[[[113.70833333333334,22.010277777777777],[113.66444444444446,22.118333333333332],[113.69805555555556,22.159444444444443],[113.66583333333334,22.228888888888886],[113.76,22.333055555555557],[113.83972222222222,22.326666666666668],[113.8863888888889,22.322777777777777],[113.89444444444445,22.302500000000002],[113.92500000000001,22.31222222222222],[113.94722222222222,22.253888888888888],[114.00944444444444,22.272499999999997],[114.07888888888888,22.147222222222222],[114.11833333333333,22.075555555555557],[113.91555555555556,22.094444444444445],[113.82138888888889,22.118333333333332],[113.70833333333334,22.010277777777777]]]]}},
    {"type":"Feature","properties":{"id":"VH-Departure High (DEH)","minFL":131,"maxFL":250},"geometry":{"type":"MultiPolygon","coordinates":[[[[113.70833333333334,22.010277777777777],[113.66444444444446,22.118333333333332],[113.69805555555556,22.159444444444443],[113.75944444444444,22.231666666666666],[113.83972222222222,22.326666666666668],[113.8863888888889,22.322777777777777],[113.89444444444445,22.302500000000002],[113.92500000000001,22.31222222222222],[113.94722222222222,22.253888888888888],[114.00944444444444,22.272499999999997],[114.07888888888888,22.147222222222222],[114.11833333333333,22.075555555555557],[113.91555555555556,22.094444444444445],[113.82138888888889,22.118333333333332],[113.70833333333334,22.010277777777777]]]]}},
    {"type":"Feature","properties":{"id":"VH-Departure High (DEH)","minFL":131,"maxFL":250},"geometry":{"type":"MultiPolygon","coordinates":[[[[113.83972222222222,22.326666666666668],[113.86666666666666,22.358055555555556],[113.86666666666666,22.398055555555555],[113.8938888888889,22.42388888888889],[113.90861111111111,22.43777777777778],[114.03166666666667,22.481944444444444],[114.21138888888889,22.54638888888889],[114.21861111111112,22.540833333333335],[114.26805555555555,22.58222222222222],[114.29388888888889,22.576944444444443],[114.39805555555556,22.60888888888889],[114.47555555555556,22.53472222222222],[114.48333333333333,22.4625],[114.50222222222222,22.448888888888888],[114.50694444444444,22.399722222222223],[114.69916666666667,22.477777777777778],[114.69916666666667,22.370833333333334],[114.69916666666667,22.185],[114.69916666666667,22.162499999999998],[114.69916666666667,21.980833333333333],[114.57944444444443,22.00638888888889],[114.50805555555556,22.240555555555556],[114.42611111111111,22.222777777777775],[114.07888888888888,22.147222222222222],[114.00944444444444,22.272499999999997],[113.94722222222222,22.253888888888888],[113.92500000000001,22.31222222222222],[113.89444444444445,22.302500000000002],[113.8863888888889,22.322777777777777],[113.83972222222222,22.326666666666668]]]]}},
    {"type":"Feature","properties":{"id":"VH-Departure High (DEH)","minFL":161,"maxFL":250},"geometry":{"type":"MultiPolygon","coordinates":[[[[114.48861111111111,21.688333333333333],[114.33583333333333,21.683333333333334],[113.96916666666667,21.67138888888889],[113.84833333333333,21.6675],[113.7975,21.791944444444447],[113.7825,21.828611111111112],[113.73555555555555,21.94388888888889],[113.70833333333334,22.010277777777777],[113.82138888888889,22.118333333333332],[113.91555555555556,22.094444444444445],[114.11833333333333,22.075555555555557],[114.07888888888888,22.147222222222222],[114.42611111111111,22.222777777777775],[114.50805555555556,22.240555555555556],[114.57944444444443,22.00638888888889],[114.53222222222222,21.936944444444446],[114.46916666666667,21.934722222222224],[114.48861111111111,21.688333333333333]]]]}},
    {"type":"Feature","properties":{"id":"VH-Departure North (DEN)","minFL":21,"maxFL":160},"geometry":{"type":"MultiPolygon","coordinates":[[[[114.69916666666667,22.370833333333334],[114.4925,22.05388888888889],[114.38111111111111,22.050555555555555],[114.17222222222223,22.305833333333332],[114.0786111111111,22.36138888888889],[114.03166666666667,22.481944444444444],[114.21138888888889,22.54638888888889],[114.21861111111112,22.540833333333335],[114.26805555555555,22.58222222222222],[114.29388888888889,22.576944444444443],[114.39805555555556,22.60888888888889],[114.47555555555556,22.53472222222222],[114.48333333333333,22.4625],[114.50222222222222,22.448888888888888],[114.50694444444444,22.399722222222223],[114.69916666666667,22.477777777777778],[114.69916666666667,22.370833333333334]]]]}},
    {"type":"Feature","properties":{"id":"VH-Departure North (DEN)","minFL":111,"maxFL":160},"geometry":{"type":"MultiPolygon","coordinates":[[[[114.69916666666667,22.185],[114.57944444444443,22.00638888888889],[114.53222222222222,21.936944444444446],[114.46916666666667,21.934722222222224],[114.38111111111111,22.050555555555555],[114.4925,22.05388888888889],[114.69916666666667,22.370833333333334],[114.69916666666667,22.185]]]]}},
    {"type":"Feature","properties":{"id":"VH-Departure North (DEN)","minFL":21,"maxFL":130},"geometry":{"type":"MultiPolygon","coordinates":[[[[114.0786111111111,22.36138888888889],[113.9375,22.316111111111113],[113.93472222222222,22.322777777777777],[113.89083333333333,22.43138888888889],[113.90861111111111,22.43777777777778],[114.03166666666667,22.481944444444444],[114.0786111111111,22.36138888888889]]]]}},
    {"type":"Feature","properties":{"id":"VH-Departure North (DEN)","minFL":131,"maxFL":160},"geometry":{"type":"MultiPolygon","coordinates":[[[[114.69916666666667,22.185],[114.69916666666667,22.162499999999998],[114.69916666666667,21.980833333333333],[114.57944444444443,22.00638888888889],[114.69916666666667,22.185]]]]}},
    {"type":"Feature","properties":{"id":"VH-Departure North (DEN)","minFL":131,"maxFL":160},"geometry":{"type":"MultiPolygon","coordinates":[[[[114.38166666666666,22.01222222222222],[114.46916666666667,21.934722222222224],[114.48861111111111,21.688333333333333],[114.33583333333333,21.683333333333334],[113.96916666666667,21.67138888888889],[113.84833333333333,21.6675],[113.7975,21.791944444444447],[113.88666666666667,21.88361111111111],[114.13083333333333,21.89],[114.20222222222222,21.891944444444444],[114.33666666666666,21.94611111111111],[114.38166666666666,22.01222222222222]]]]}},
    {"type":"Feature","properties":{"id":"VH-Departure North (DEN)","minFL":91,"maxFL":160},"geometry":{"type":"MultiPolygon","coordinates":[[[[114.13083333333333,21.89],[114.20222222222222,21.891944444444444],[114.33666666666666,21.94611111111111],[114.38166666666666,22.01222222222222],[114.33444444444444,22.04277777777778],[114.11833333333333,22.075555555555557],[114.18027777777779,21.96388888888889],[114.13083333333333,21.89]]]]}},
    {"type":"Feature","properties":{"id":"VH-Departure North (DEN)","minFL":21,"maxFL":90},"geometry":{"type":"MultiPolygon","coordinates":[[[[113.70833333333334,22.010277777777777],[113.66444444444446,22.118333333333332],[113.69805555555556,22.159444444444443],[113.66583333333334,22.228888888888886],[113.76,22.333055555555557],[113.8863888888889,22.322777777777777],[113.89444444444445,22.302500000000002],[113.84777777777778,22.28777777777778],[113.75944444444444,22.231666666666666],[113.80583333333333,22.130833333333335],[113.82138888888889,22.118333333333332],[113.70833333333334,22.010277777777777]]]]}},
    {"type":"Feature","properties":{"id":"VH-Departure North (DEN)","minFL":21,"maxFL":160},"geometry":{"type":"MultiPolygon","coordinates":[[[[114.13083333333333,21.89],[113.88666666666667,21.88361111111111],[113.7975,21.791944444444447],[113.7825,21.828611111111112],[113.73555555555555,21.94388888888889],[113.70833333333334,22.010277777777777],[113.82138888888889,22.118333333333332],[113.91555555555556,22.094444444444445],[114.11833333333333,22.075555555555557],[114.18027777777779,21.96388888888889],[114.13083333333333,21.89]]]]}},
    {"type":"Feature","properties":{"id":"VH-Departure South (DES)","minFL":131,"maxFL":160},"geometry":{"type":"MultiPolygon","coordinates":[[[[114.48861111111111,21.688333333333333],[114.33583333333333,21.683333333333334],[113.96916666666667,21.67138888888889],[113.84833333333333,21.6675],[113.7975,21.791944444444447],[113.7825,21.828611111111112],[113.73555555555555,21.94388888888889],[113.96000000000001,22.03888888888889],[114.19638888888889,21.925833333333333],[114.46916666666667,21.934722222222224],[114.48861111111111,21.688333333333333]]]]}},
    {"type":"Feature","properties":{"id":"VH-Departure South (DES)","minFL":21,"maxFL":130},"geometry":{"type":"MultiPolygon","coordinates":[[[[114.38111111111111,22.050555555555555],[114.17222222222223,22.305833333333332],[114.0786111111111,22.36138888888889],[113.9375,22.316111111111113],[113.92500000000001,22.31222222222222],[113.89444444444445,22.302500000000002],[113.91722222222222,22.245555555555555],[114.02777777777777,22.145555555555553],[114.2425,22.046111111111113],[114.38111111111111,22.050555555555555]]]]}},
    {"type":"Feature","properties":{"id":"VH-Departure South (DES)","minFL":91,"maxFL":160},"geometry":{"type":"MultiPolygon","coordinates":[[[[113.96000000000001,22.03888888888889],[114.19638888888889,21.925833333333333],[114.46916666666667,21.934722222222224],[114.38111111111111,22.050555555555555],[114.2425,22.046111111111113],[114.02777777777777,22.145555555555553]]]]}},
    {"type":"Feature","properties":{"id":"VH-Departure South (DES)","minFL":61,"maxFL":130},"geometry":{"type":"MultiPolygon","coordinates":[[[[113.9375,22.316111111111113],[113.92500000000001,22.31222222222222],[113.89444444444445,22.302500000000002],[113.8863888888889,22.322777777777777],[113.76,22.333055555555557],[113.82888888888888,22.409444444444443],[113.89083333333333,22.43138888888889],[113.93472222222222,22.322777777777777],[113.9375,22.316111111111113]]]]}},
    {"type":"Feature","properties":{"id":"VH-Departure South (DES)","minFL":131,"maxFL":160},"geometry":{"type":"MultiPolygon","coordinates":[[[[114.50805555555556,22.240555555555556],[114.57944444444443,22.00638888888889],[114.53222222222222,21.936944444444446],[114.46916666666667,21.934722222222224],[114.38166666666666,22.01222222222222],[114.42611111111111,22.222777777777775],[114.50805555555556,22.240555555555556]]]]}},
    {"type":"Feature","properties":{"id":"VH-Departure South (DES)","minFL":81,"maxFL":160},"geometry":{"type":"MultiPolygon","coordinates":[[[[114.11833333333333,22.075555555555557],[114.33444444444444,22.04277777777778],[114.38166666666666,22.01222222222222],[114.42611111111111,22.222777777777775],[114.07888888888888,22.147222222222222],[114.11833333333333,22.075555555555557]]]]}},
    {"type":"Feature","properties":{"id":"VH-Departure South (DES)","minFL":61,"maxFL":130},"geometry":{"type":"MultiPolygon","coordinates":[[[[114.42611111111111,22.222777777777775],[114.07888888888888,22.147222222222222],[114.00944444444444,22.272499999999997],[113.94722222222222,22.253888888888888],[113.92500000000001,22.31222222222222],[113.9375,22.316111111111113],[113.93472222222222,22.322777777777777],[114.33999999999999,22.452777777777776],[114.42611111111111,22.222777777777775]]]]}},
    {"type":"Feature","properties":{"id":"VH-Departure South (DES)","minFL":91,"maxFL":130},"geometry":{"type":"MultiPolygon","coordinates":[[[[114.33999999999999,22.452777777777776],[113.93472222222222,22.322777777777777],[113.89083333333333,22.43138888888889],[113.90861111111111,22.43777777777778],[114.03166666666667,22.481944444444444],[114.21138888888889,22.54638888888889],[114.21861111111112,22.540833333333335],[114.26805555555555,22.58222222222222],[114.29388888888889,22.576944444444443],[114.33999999999999,22.452777777777776]]]]}},
    {"type":"Feature","properties":{"id":"VH-Departure South (DES)","minFL":21,"maxFL":90},"geometry":{"type":"MultiPolygon","coordinates":[[[[113.89444444444445,22.302500000000002],[113.84777777777778,22.28777777777778],[113.75944444444444,22.231666666666666],[113.80583333333333,22.130833333333335],[113.82138888888889,22.118333333333332],[113.91555555555556,22.094444444444445],[114.11833333333333,22.075555555555557],[114.07888888888888,22.147222222222222],[114.00944444444444,22.272499999999997],[113.94722222222222,22.253888888888888],[113.92500000000001,22.31222222222222],[113.89444444444445,22.302500000000002]]]]}},
    {"type":"Feature","properties":{"id":"VH-Departure South (DES)","minFL":61,"maxFL":130},"geometry":{"type":"MultiPolygon","coordinates":[[[[113.76,22.333055555555557],[113.82888888888888,22.409444444444443],[113.89083333333333,22.43138888888889],[113.93472222222222,22.322777777777777],[113.9375,22.316111111111113],[113.92500000000001,22.31222222222222],[113.89444444444445,22.302500000000002],[113.8863888888889,22.322777777777777],[113.76,22.333055555555557]]]]}},
    {"type":"Feature","properties":{"id":"VH-Hong Kong Control Zone (CTR)","minFL":0,"maxFL":20},"geometry":{"type":"MultiPolygon","coordinates":[[[[114.015,22.47611111111111],[114.00694444444444,22.449722222222224],[114.05083333333333,22.430833333333336],[114.06944444444444,22.405555555555555],[114.11888888888888,22.420833333333334],[114.17777777777778,22.41111111111111],[114.22222222222223,22.37777777777778],[114.22361111111111,22.341666666666665],[114.35,22.254166666666666],[114.35,22.147222222222222],[114.28472222222221,22.147222222222222],[114.25555555555556,22.13888888888889],[114.23611111111111,22.147222222222222],[114.19583333333334,22.147222222222222],[114.19583333333334,22.111111111111114],[113.8,21.940277777777776],[113.66583333333334,22.228888888888886],[113.82888888888888,22.409444444444443]]]]}},
    {"type":"Feature","properties":{"id":"VH-ATZ North","minFL":0,"maxFL":20},"geometry":{"type":"MultiPolygon","coordinates":[[[[113.86583333333333,22.300555555555555],[113.96083333333334,22.33111111111111],[113.94944444444445,22.3625],[113.86666666666666,22.336944444444445],[113.85305555555556,22.33277777777778]]]]}},
    {"type":"Feature","properties":{"id":"VH-ATZ South","minFL":0,"maxFL":20},"geometry":{"type":"MultiPolygon","coordinates":[[[[113.86583333333333,22.300555555555555],[113.96083333333334,22.33111111111111],[113.97805555555556,22.284722222222225],[113.88333333333334,22.256666666666668],[113.87722222222222,22.27138888888889]]]]}},
    {"type":"Feature","properties":{"id":"VH-Kai Tak ATZ","minFL":0,"maxFL":20},"geometry":{"type":"MultiPolygon","coordinates":[[[[114.26333333333334,22.306944444444444],[114.21916666666667,22.26388888888889],[114.14583333333334,22.325833333333332],[114.17277777777778,22.354166666666668],[114.20416666666667,22.354722222222225],[114.22277777777778,22.340833333333332],[114.26333333333334,22.306944444444444]]]]}},
    {"type":"Feature","properties":{"id":"VH-Macao ATZ","minFL":0,"maxFL":30},"geometry":{"type":"MultiPolygon","coordinates":[[[[113.57916666666667,22.23222222222222],[113.5975,22.256666666666668],[113.62694444444443,22.2375],[113.62027777777777,22.22833333333333],[113.63444444444445,22.222499999999997],[113.64750000000001,22.214444444444442],[113.6588888888889,22.204166666666666],[113.66805555555555,22.1925],[113.67500000000001,22.179444444444446],[113.67944444444444,22.165555555555553],[113.68111111111112,22.15111111111111],[113.68027777777779,22.136666666666667],[113.6763888888889,22.1225],[113.67027777777778,22.109166666666667],[113.6588888888889,22.094444444444445],[113.6913888888889,22.004444444444445],[113.60666666666665,21.9775],[113.57388888888889,22.06722222222222],[113.56333333333333,22.06972222222222],[113.51694444444445,22.19638888888889],[113.52694444444444,22.20777777777778],[113.53888888888889,22.21722222222222],[113.5525,22.224444444444444],[113.56722222222221,22.229444444444443],[113.57916666666667,22.23222222222222]]]]}}
]
}
